{"type":"FeatureCollection","features":[{"type":"Feature","properties":{"district_name":"Anugul","canonical_district_name":"Angul","district_code_if_known":{"census_code":384,"lgd_code":344},"travel_region":"Cuttack & Mahanadi","source":"geoBoundaries gbOpen IND ADM2 (William & Mary geoLab / UN OCHA HDX)","source_authority":"EXTERNAL_OPEN_DATA","source_license":"CC BY 4.0","source_version":"gbOpen IND ADM2","retrieved_at":"2026-09-08T10:19:35+05:30","geometry_status":"VALID","canonical_promotion_allowed":false,"provenance":{"source_id":"SRC_GEOBOUNDARIES_IND_ADM2","claim_id":"CLM_DISTRICT_BOUNDARIES_GEOBOUNDARIES_008","source_url":"https://www.geoboundaries.org/api/current/gbOpen/IND/ADM2/","source_tier":"TIER_C_INSTITUTIONAL","retrieved_at":"2026-09-08T10:19:35+05:30","licensing_status":"CREATIVE_COMMONS_CC_BY_4_0","freshness_class":"SLOW_CHANGING","review_verdict":"ACCEPT_STAGING"}},"geometry":{"type":"Polygon","coordinates":[[[84.2674,20.88988],[84.35712,20.83622],[84.35713,20.78209],[84.37195,20.7634],[84.45705,20.74396],[84.57154,20.68783],[84.63747,20.62539],[84.77814,20.60254],[84.85138,20.52881],[84.89788,20.58086],[84.98617,20.56766],[84.99214,20.58316],[85.02688,20.58797],[85.06693,20.57762],[85.09297,20.61142],[85.1229,20.61052],[85.13674,20.63999],[85.11481,20.68234],[85.14042,20.72987],[85.17529,20.70106],[85.168,20.65953],[85.19679,20.67813],[85.21566,20.73673],[85.24415,20.74173],[85.25758,20.77134],[85.30073,20.79691],[85.29163,20.81655],[85.30628,20.82915],[85.29108,20.87993],[85.24308,20.90395],[85.25833,20.991],[85.16887,21.05804],[85.18624,21.08092],[85.23316,21.07174],[85.27364,21.17444],[85.29109,21.1812],[85.3207,21.16082],[85.3408,21.17971],[85.35126,21.16903],[85.40834,21.17857],[85.36808,21.2406],[85.27381,21.27561],[85.27449,21.30211],[85.31562,21.3294],[85.32649,21.31999],[85.3435,21.35934],[85.30508,21.41443],[85.26066,21.4459],[85.30849,21.44964],[85.33361,21.48203],[85.32412,21.53199],[85.30159,21.53976],[85.31276,21.56708],[85.28765,21.58751],[85.25092,21.67646],[85.19392,21.66365],[85.19121,21.62451],[85.15433,21.60516],[85.15023,21.59452],[85.19086,21.58793],[85.21542,21.55451],[85.15716,21.4609],[85.07723,21.45775],[85.05998,21.44295],[85.02404,21.45737],[85.00393,21.44017],[84.99572,21.41109],[85.01294,21.31819],[85.03719,21.29485],[84.96315,21.29914],[84.90159,21.25973],[84.94336,21.19778],[84.96839,21.19187],[84.96283,21.14919],[84.93414,21.18128],[84.92245,21.14262],[84.82324,21.1731],[84.79953,21.16738],[84.81893,21.14574],[84.8003,21.13407],[84.74457,21.17109],[84.72538,21.1498],[84.68539,21.14952],[84.67059,21.09598],[84.68307,21.0647],[84.65163,21.08491],[84.5891,21.0644],[84.53509,21.08913],[84.48496,21.08305],[84.44199,21.03509],[84.41048,21.03127],[84.43576,21.01476],[84.40722,20.97952],[84.28272,20.92768],[84.2674,20.88988]]]}},{"type":"Feature","properties":{"district_name":"Balangir","canonical_district_name":"Balangir","district_code_if_known":{"census_code":393,"lgd_code":345},"travel_region":"Sambalpur & Western Odisha","source":"geoBoundaries gbOpen IND ADM2 (William & Mary geoLab / UN OCHA HDX)","source_authority":"EXTERNAL_OPEN_DATA","source_license":"CC BY 4.0","source_version":"gbOpen IND ADM2","retrieved_at":"2026-09-08T10:19:35+05:30","geometry_status":"VALID","canonical_promotion_allowed":false,"provenance":{"source_id":"SRC_GEOBOUNDARIES_IND_ADM2","claim_id":"CLM_DISTRICT_BOUNDARIES_GEOBOUNDARIES_008","source_url":"https://www.geoboundaries.org/api/current/gbOpen/IND/ADM2/","source_tier":"TIER_C_INSTITUTIONAL","retrieved_at":"2026-09-08T10:19:35+05:30","licensing_status":"CREATIVE_COMMONS_CC_BY_4_0","freshness_class":"SLOW_CHANGING","review_verdict":"ACCEPT_STAGING"}},"geometry":{"type":"Polygon","coordinates":[[[83.45918,21.05547],[83.42771,21.03219],[83.39806,21.0681],[83.35857,21.07012],[83.32475,21.05594],[83.29692,21.01595],[83.33001,20.98544],[83.36448,21.00607],[83.38619,20.99374],[83.38328,20.94385],[83.41633,20.91028],[83.41312,20.89656],[83.35072,20.87698],[83.33298,20.88476],[83.28284,20.84464],[83.25412,20.91986],[83.21943,20.93557],[83.20144,20.90701],[83.13248,20.86411],[83.10472,20.87657],[83.09081,20.86174],[82.99343,20.84971],[82.96801,20.89743],[82.92953,20.88836],[82.89093,20.90929],[82.77593,20.80791],[82.74875,20.77358],[82.73757,20.726],[82.70294,20.72625],[82.69633,20.68128],[82.72406,20.67233],[82.74322,20.62356],[82.71345,20.56753],[82.68674,20.45063],[82.73222,20.38481],[82.71965,20.35806],[82.77132,20.35534],[82.81734,20.38369],[82.79235,20.32663],[82.81469,20.32873],[82.81746,20.35917],[82.855,20.33763],[82.85073,20.2938],[82.82324,20.32235],[82.81439,20.29572],[82.86241,20.27091],[82.85702,20.21464],[82.84295,20.1924],[82.8182,20.18899],[82.81782,20.16992],[82.88562,20.1458],[82.91127,20.14907],[82.93238,20.17987],[83.01342,20.17105],[83.09097,20.19925],[83.12825,20.19454],[83.14553,20.17084],[83.18365,20.17339],[83.22637,20.20557],[83.24117,20.25921],[83.3003,20.30408],[83.36031,20.31561],[83.42347,20.40393],[83.48769,20.45461],[83.49189,20.40669],[83.50823,20.41602],[83.5558,20.40099],[83.5771,20.36567],[83.62507,20.35126],[83.63001,20.36915],[83.65526,20.36827],[83.6662,20.42347],[83.57218,20.48506],[83.5829,20.52426],[83.60624,20.53051],[83.59576,20.60418],[83.67766,20.74276],[83.65328,20.75246],[83.65592,20.77356],[83.63759,20.77235],[83.6255,20.8273],[83.57375,20.85338],[83.62075,20.90424],[83.61118,20.93392],[83.64146,20.98138],[83.57519,20.97563],[83.47085,20.99814],[83.45064,21.01968],[83.45918,21.05547]]]}},{"type":"Feature","properties":{"district_name":"Baleshwar","canonical_district_name":"Balasore","district_code_if_known":{"census_code":377,"lgd_code":346},"travel_region":"Northern Odisha & Wildlife","source":"geoBoundaries gbOpen IND ADM2 (William & Mary geoLab / UN OCHA HDX)","source_authority":"EXTERNAL_OPEN_DATA","source_license":"CC BY 4.0","source_version":"gbOpen IND ADM2","retrieved_at":"2026-09-08T10:19:35+05:30","geometry_status":"VALID","canonical_promotion_allowed":false,"provenance":{"source_id":"SRC_GEOBOUNDARIES_IND_ADM2","claim_id":"CLM_DISTRICT_BOUNDARIES_GEOBOUNDARIES_008","source_url":"https://www.geoboundaries.org/api/current/gbOpen/IND/ADM2/","source_tier":"TIER_C_INSTITUTIONAL","retrieved_at":"2026-09-08T10:19:35+05:30","licensing_status":"CREATIVE_COMMONS_CC_BY_4_0","freshness_class":"SLOW_CHANGING","review_verdict":"ACCEPT_STAGING"}},"geometry":{"type":"Polygon","coordinates":[[[87.44301,21.76973],[87.37392,21.76545],[87.35592,21.79106],[87.27549,21.8087],[87.23879,21.90073],[87.25507,21.92167],[87.23766,21.95979],[87.19927,21.95911],[87.1715,21.97841],[87.16238,21.93562],[87.10881,21.9229],[87.09269,21.90019],[87.10508,21.85698],[87.17564,21.81437],[87.1709,21.78903],[87.14547,21.76389],[87.10544,21.78358],[87.12226,21.75525],[87.08721,21.73794],[87.09372,21.72698],[87.07159,21.70682],[87.04824,21.71107],[87.04774,21.73966],[87.02685,21.74117],[87.05377,21.68373],[87.03089,21.66077],[87.015,21.67457],[86.98912,21.66741],[86.99327,21.64915],[87.01193,21.64832],[86.99946,21.60895],[87.03,21.59036],[87.02345,21.57607],[86.98525,21.57614],[86.96073,21.55857],[86.88706,21.62551],[86.89498,21.58499],[86.87963,21.57403],[86.85457,21.60392],[86.81235,21.6071],[86.65214,21.57928],[86.637,21.52956],[86.58492,21.52132],[86.53443,21.42827],[86.48927,21.38083],[86.36135,21.30073],[86.37419,21.23186],[86.41692,21.20978],[86.45888,21.2357],[86.46198,21.1597],[86.5111,21.13775],[86.53962,21.16064],[86.55812,21.15753],[86.59309,21.09745],[86.62817,21.09376],[86.63115,21.06913],[86.64875,21.06393],[86.64594,21.08229],[86.66788,21.09697],[86.65564,21.10922],[86.67172,21.16445],[86.70907,21.18337],[86.77564,21.17163],[86.75986,21.19906],[86.77413,21.22884],[86.84815,21.23971],[86.95605,21.38392],[87.11864,21.51529],[87.24423,21.54995],[87.39331,21.54375],[87.33793,21.57685],[87.40416,21.55845],[87.48681,21.61122],[87.46233,21.65051],[87.46976,21.73062],[87.44665,21.73447],[87.44301,21.76973]]]}},{"type":"Feature","properties":{"district_name":"Bargarh","canonical_district_name":"Bargarh","district_code_if_known":{"census_code":370,"lgd_code":347},"travel_region":"Sambalpur & Western Odisha","source":"geoBoundaries gbOpen IND ADM2 (William & Mary geoLab / UN OCHA HDX)","source_authority":"EXTERNAL_OPEN_DATA","source_license":"CC BY 4.0","source_version":"gbOpen IND ADM2","retrieved_at":"2026-09-08T10:19:35+05:30","geometry_status":"VALID","canonical_promotion_allowed":false,"provenance":{"source_id":"SRC_GEOBOUNDARIES_IND_ADM2","claim_id":"CLM_DISTRICT_BOUNDARIES_GEOBOUNDARIES_008","source_url":"https://www.geoboundaries.org/api/current/gbOpen/IND/ADM2/","source_tier":"TIER_C_INSTITUTIONAL","retrieved_at":"2026-09-08T10:19:35+05:30","licensing_status":"CREATIVE_COMMONS_CC_BY_4_0","freshness_class":"SLOW_CHANGING","review_verdict":"ACCEPT_STAGING"}},"geometry":{"type":"Polygon","coordinates":[[[83.27718,21.3788],[83.26135,21.32342],[83.28195,21.30255],[83.27485,21.27253],[83.24961,21.28034],[83.22553,21.26403],[83.19996,21.14355],[83.14121,21.10934],[83.04784,21.12293],[83.00024,21.15816],[82.97241,21.15961],[82.96334,21.17929],[82.88654,21.15287],[82.81974,21.16224],[82.79617,21.14297],[82.75962,21.16337],[82.64329,21.15297],[82.65511,21.12854],[82.63922,21.09059],[82.69377,21.02225],[82.69085,20.72991],[82.73757,20.726],[82.74875,20.77358],[82.77593,20.80791],[82.89093,20.90929],[82.92953,20.88836],[82.96801,20.89743],[82.99343,20.84971],[83.09081,20.86174],[83.10472,20.87657],[83.13248,20.86411],[83.20144,20.90701],[83.21943,20.93557],[83.25412,20.91986],[83.28284,20.84464],[83.33298,20.88476],[83.35072,20.87698],[83.41312,20.89656],[83.41633,20.91028],[83.38328,20.94385],[83.38619,20.99374],[83.36448,21.00607],[83.33001,20.98544],[83.29692,21.01595],[83.32475,21.05594],[83.39449,21.07002],[83.42771,21.03219],[83.4659,21.06056],[83.49892,21.04219],[83.49762,21.06232],[83.54976,21.07622],[83.61367,21.12954],[83.71801,21.12159],[83.76993,21.1555],[83.78529,21.15261],[83.79957,21.11652],[83.84469,21.0979],[83.91108,21.22396],[83.89141,21.29715],[83.87148,21.31111],[83.88079,21.39058],[83.84944,21.41072],[83.88665,21.43931],[83.84666,21.52779],[83.81514,21.54019],[83.72709,21.63124],[83.69481,21.70209],[83.59859,21.73544],[83.55979,21.74355],[83.52706,21.67315],[83.47004,21.60904],[83.4484,21.62157],[83.4483,21.6527],[83.37528,21.60052],[83.37402,21.55655],[83.34174,21.49915],[83.35741,21.44769],[83.4008,21.40147],[83.43144,21.39456],[83.40972,21.38495],[83.40787,21.3506],[83.36852,21.34831],[83.27718,21.3788]]]}},{"type":"Feature","properties":{"district_name":"Bhadrak","canonical_district_name":"Bhadrak","district_code_if_known":{"census_code":378,"lgd_code":348},"travel_region":"Northern Odisha & Wildlife","source":"geoBoundaries gbOpen IND ADM2 (William & Mary geoLab / UN OCHA HDX)","source_authority":"EXTERNAL_OPEN_DATA","source_license":"CC BY 4.0","source_version":"gbOpen IND ADM2","retrieved_at":"2026-09-08T10:19:35+05:30","geometry_status":"VALID","canonical_promotion_allowed":false,"provenance":{"source_id":"SRC_GEOBOUNDARIES_IND_ADM2","claim_id":"CLM_DISTRICT_BOUNDARIES_GEOBOUNDARIES_008","source_url":"https://www.geoboundaries.org/api/current/gbOpen/IND/ADM2/","source_tier":"TIER_C_INSTITUTIONAL","retrieved_at":"2026-09-08T10:19:35+05:30","licensing_status":"CREATIVE_COMMONS_CC_BY_4_0","freshness_class":"SLOW_CHANGING","review_verdict":"ACCEPT_STAGING"}},"geometry":{"type":"MultiPolygon","coordinates":[[[[86.37089,21.2391],[86.35278,21.23515],[86.33994,21.18014],[86.29265,21.17621],[86.27342,21.14319],[86.31033,21.11187],[86.30665,21.0881],[86.32613,21.06003],[86.30646,21.01748],[86.28959,21.01901],[86.28199,20.907],[86.33578,20.8788],[86.32929,20.86606],[86.35469,20.85366],[86.40132,20.86442],[86.45217,20.84531],[86.49797,20.86902],[86.56978,20.86635],[86.59646,20.85769],[86.62457,20.81047],[86.61634,20.79817],[86.66048,20.79915],[86.71038,20.77739],[86.71313,20.76321],[86.76016,20.77099],[86.76861,20.73571],[86.79754,20.73911],[86.7954,20.75299],[86.81716,20.75272],[86.87921,20.80856],[86.88475,20.79471],[86.9606,20.78761],[86.97135,20.82119],[86.96166,20.85835],[86.82375,21.13943],[86.84815,21.23971],[86.77413,21.22884],[86.75986,21.19906],[86.77564,21.17163],[86.70907,21.18337],[86.67172,21.16445],[86.65564,21.10922],[86.66788,21.09697],[86.64225,21.06146],[86.62817,21.09376],[86.592,21.09858],[86.55812,21.15753],[86.53962,21.16064],[86.5111,21.13775],[86.46198,21.1597],[86.45888,21.2357],[86.41692,21.20978],[86.37089,21.2391]]],[[[86.95034,20.77422],[86.89302,20.78689],[86.86554,20.78344],[86.88536,20.77332],[86.95034,20.77422]]],[[[87.0141,20.79377],[87.0173,20.82409],[86.99994,20.83395],[87.0141,20.79377]]],[[[86.97943,20.77775],[86.989,20.78435],[86.97796,20.78229],[86.97943,20.77775]]]]}},{"type":"Feature","properties":{"district_name":"Baudh","canonical_district_name":"Boudh","district_code_if_known":{"census_code":391,"lgd_code":349},"travel_region":"Kandhamal & Southern Hills","source":"geoBoundaries gbOpen IND ADM2 (William & Mary geoLab / UN OCHA HDX)","source_authority":"EXTERNAL_OPEN_DATA","source_license":"CC BY 4.0","source_version":"gbOpen IND ADM2","retrieved_at":"2026-09-08T10:19:35+05:30","geometry_status":"VALID","canonical_promotion_allowed":false,"provenance":{"source_id":"SRC_GEOBOUNDARIES_IND_ADM2","claim_id":"CLM_DISTRICT_BOUNDARIES_GEOBOUNDARIES_008","source_url":"https://www.geoboundaries.org/api/current/gbOpen/IND/ADM2/","source_tier":"TIER_C_INSTITUTIONAL","retrieved_at":"2026-09-08T10:19:35+05:30","licensing_status":"CREATIVE_COMMONS_CC_BY_4_0","freshness_class":"SLOW_CHANGING","review_verdict":"ACCEPT_STAGING"}},"geometry":{"type":"Polygon","coordinates":[[[83.68896,20.5612],[83.5829,20.52426],[83.57526,20.48187],[83.6659,20.4236],[83.69537,20.41668],[83.72213,20.43524],[83.77876,20.41257],[83.78755,20.44371],[83.80959,20.43276],[83.81175,20.45037],[83.82956,20.45184],[83.79619,20.51028],[83.85825,20.5728],[83.91465,20.58081],[83.91699,20.61691],[83.94305,20.5831],[84.00684,20.57018],[84.07434,20.59872],[84.14551,20.58453],[84.17821,20.60515],[84.22133,20.58775],[84.28252,20.64332],[84.27817,20.675],[84.31889,20.69499],[84.36057,20.67438],[84.393,20.53192],[84.43511,20.50915],[84.429,20.48404],[84.46528,20.4423],[84.4627,20.39739],[84.48723,20.38727],[84.54675,20.42259],[84.67493,20.43053],[84.69215,20.44281],[84.68457,20.46353],[84.72041,20.52632],[84.74441,20.54107],[84.7707,20.53195],[84.79606,20.56088],[84.76497,20.60885],[84.63747,20.62539],[84.57154,20.68783],[84.45705,20.74396],[84.37195,20.7634],[84.35152,20.84214],[84.22976,20.903],[84.05483,20.82885],[83.9404,20.84155],[83.89851,20.81662],[83.84502,20.82431],[83.78108,20.79942],[83.76324,20.77556],[83.75931,20.71609],[83.71858,20.64076],[83.73137,20.6068],[83.68896,20.5612]]]}},{"type":"Feature","properties":{"district_name":"Cuttack","canonical_district_name":"Cuttack","district_code_if_known":{"census_code":381,"lgd_code":350},"travel_region":"Cuttack & Mahanadi","source":"geoBoundaries gbOpen IND ADM2 (William & Mary geoLab / UN OCHA HDX)","source_authority":"EXTERNAL_OPEN_DATA","source_license":"CC BY 4.0","source_version":"gbOpen IND ADM2","retrieved_at":"2026-09-08T10:19:35+05:30","geometry_status":"VALID","canonical_promotion_allowed":false,"provenance":{"source_id":"SRC_GEOBOUNDARIES_IND_ADM2","claim_id":"CLM_DISTRICT_BOUNDARIES_GEOBOUNDARIES_008","source_url":"https://www.geoboundaries.org/api/current/gbOpen/IND/ADM2/","source_tier":"TIER_C_INSTITUTIONAL","retrieved_at":"2026-09-08T10:19:35+05:30","licensing_status":"CREATIVE_COMMONS_CC_BY_4_0","freshness_class":"SLOW_CHANGING","review_verdict":"ACCEPT_STAGING"}},"geometry":{"type":"Polygon","coordinates":[[[86.18911,20.05408],[86.15708,20.0946],[86.16677,20.11251],[86.14644,20.14665],[86.15112,20.22264],[86.07899,20.24621],[86.06916,20.27219],[86.03247,20.29742],[86.03551,20.34064],[86.01473,20.38178],[86.02736,20.40189],[86.09276,20.36592],[86.13678,20.35758],[86.17512,20.37827],[86.22862,20.36206],[86.25462,20.36714],[86.28067,20.39789],[86.26797,20.45153],[86.27746,20.51786],[86.25266,20.53897],[86.28345,20.58453],[86.21396,20.61818],[86.2099,20.63372],[86.18893,20.62437],[86.16763,20.63952],[86.19292,20.64289],[86.1925,20.65681],[86.11951,20.61802],[86.09264,20.61847],[86.08245,20.59891],[86.04783,20.59075],[86.0522,20.57482],[86.02544,20.57202],[85.92367,20.68892],[85.91203,20.69372],[85.88399,20.65852],[85.79179,20.67313],[85.76687,20.66085],[85.75728,20.6355],[85.72942,20.64582],[85.70864,20.62733],[85.71044,20.60554],[85.6586,20.55049],[85.59955,20.53671],[85.58932,20.51274],[85.51152,20.53604],[85.45792,20.48577],[85.40653,20.51061],[85.40269,20.48666],[85.2522,20.51875],[85.21283,20.54839],[85.20917,20.5756],[85.12933,20.61585],[85.09297,20.61142],[85.06693,20.57762],[85.02688,20.58797],[84.99214,20.58316],[84.98617,20.56766],[84.89788,20.58086],[84.85138,20.52881],[84.88466,20.49971],[84.94534,20.49285],[85.07624,20.41629],[85.19139,20.38806],[85.24866,20.39364],[85.28592,20.37226],[85.36762,20.39266],[85.37372,20.35113],[85.35467,20.33613],[85.35585,20.30241],[85.33677,20.27276],[85.38261,20.28621],[85.40801,20.25671],[85.42164,20.27284],[85.45437,20.26715],[85.4612,20.29512],[85.5227,20.29395],[85.55279,20.31373],[85.6264,20.29263],[85.64584,20.32488],[85.67863,20.32488],[85.71549,20.39992],[85.77329,20.40375],[85.78702,20.43339],[85.80716,20.43424],[85.82293,20.4083],[85.83939,20.4127],[85.85537,20.38753],[85.90011,20.36813],[85.92859,20.32898],[85.93139,20.31218],[85.91405,20.31767],[85.93372,20.27323],[86.00744,20.22472],[86.02745,20.17141],[86.04254,20.1807],[86.05448,20.16573],[86.03594,20.14394],[86.08482,20.10498],[86.07697,20.07886],[86.08991,20.06055],[86.1172,20.06749],[86.13434,20.04007],[86.18911,20.05408]]]}},{"type":"Feature","properties":{"district_name":"Debagarh","canonical_district_name":"Deogarh","district_code_if_known":{"census_code":373,"lgd_code":351},"travel_region":"Sambalpur & Western Odisha","source":"geoBoundaries gbOpen IND ADM2 (William & Mary geoLab / UN OCHA HDX)","source_authority":"EXTERNAL_OPEN_DATA","source_license":"CC BY 4.0","source_version":"gbOpen IND ADM2","retrieved_at":"2026-09-08T10:19:35+05:30","geometry_status":"VALID","canonical_promotion_allowed":false,"provenance":{"source_id":"SRC_GEOBOUNDARIES_IND_ADM2","claim_id":"CLM_DISTRICT_BOUNDARIES_GEOBOUNDARIES_008","source_url":"https://www.geoboundaries.org/api/current/gbOpen/IND/ADM2/","source_tier":"TIER_C_INSTITUTIONAL","retrieved_at":"2026-09-08T10:19:35+05:30","licensing_status":"CREATIVE_COMMONS_CC_BY_4_0","freshness_class":"SLOW_CHANGING","review_verdict":"ACCEPT_STAGING"}},"geometry":{"type":"Polygon","coordinates":[[[85.2009,21.5795],[85.08787,21.6039],[85.05171,21.58939],[85.02745,21.67203],[85.00012,21.68249],[84.86565,21.65285],[84.79298,21.66888],[84.79314,21.63235],[84.75905,21.62516],[84.74889,21.68193],[84.7204,21.71543],[84.69771,21.70715],[84.67966,21.735],[84.64514,21.7398],[84.62751,21.69522],[84.57852,21.70049],[84.54456,21.67722],[84.5053,21.67986],[84.49127,21.6382],[84.52739,21.62312],[84.57478,21.57289],[84.53975,21.57911],[84.49598,21.5274],[84.4828,21.53438],[84.47222,21.50498],[84.4534,21.5038],[84.44517,21.48028],[84.38167,21.45676],[84.37814,21.34151],[84.45928,21.36738],[84.50044,21.35562],[84.50044,21.33093],[84.55666,21.34693],[84.57082,21.25161],[84.63227,21.27605],[84.67237,21.31578],[84.71707,21.31549],[84.77217,21.25271],[84.76105,21.22489],[84.74395,21.23253],[84.722,21.20634],[84.76396,21.15065],[84.81263,21.13762],[84.79953,21.16738],[84.82324,21.1731],[84.92245,21.14262],[84.93628,21.15749],[84.93017,21.18154],[84.94992,21.17623],[84.96283,21.14919],[84.96839,21.19187],[84.94336,21.19778],[84.90159,21.25973],[84.96315,21.29914],[85.03719,21.29485],[85.01294,21.31819],[84.99572,21.41109],[85.01118,21.45186],[85.05998,21.44295],[85.07723,21.45775],[85.15716,21.4609],[85.20609,21.52093],[85.21542,21.55451],[85.2009,21.5795]]]}},{"type":"Feature","properties":{"district_name":"Dhenkanal","canonical_district_name":"Dhenkanal","district_code_if_known":{"census_code":383,"lgd_code":352},"travel_region":"Cuttack & Mahanadi","source":"geoBoundaries gbOpen IND ADM2 (William & Mary geoLab / UN OCHA HDX)","source_authority":"EXTERNAL_OPEN_DATA","source_license":"CC BY 4.0","source_version":"gbOpen IND ADM2","retrieved_at":"2026-09-08T10:19:35+05:30","geometry_status":"VALID","canonical_promotion_allowed":false,"provenance":{"source_id":"SRC_GEOBOUNDARIES_IND_ADM2","claim_id":"CLM_DISTRICT_BOUNDARIES_GEOBOUNDARIES_008","source_url":"https://www.geoboundaries.org/api/current/gbOpen/IND/ADM2/","source_tier":"TIER_C_INSTITUTIONAL","retrieved_at":"2026-09-08T10:19:35+05:30","licensing_status":"CREATIVE_COMMONS_CC_BY_4_0","freshness_class":"SLOW_CHANGING","review_verdict":"ACCEPT_STAGING"}},"geometry":{"type":"Polygon","coordinates":[[[85.12933,20.61585],[85.17923,20.59882],[85.20917,20.5756],[85.21283,20.54839],[85.28261,20.50941],[85.40269,20.48666],[85.40653,20.51061],[85.45792,20.48577],[85.51152,20.53604],[85.58932,20.51274],[85.59955,20.53671],[85.6586,20.55049],[85.72942,20.64582],[85.75728,20.6355],[85.76687,20.66085],[85.79179,20.67313],[85.88399,20.65852],[85.90993,20.68345],[85.90832,20.7129],[85.99622,20.74019],[86.02566,20.72669],[86.03347,20.80938],[85.90115,20.84717],[85.91975,20.92788],[85.82757,20.92667],[85.77926,20.98217],[85.72412,20.98377],[85.73023,21.06359],[85.70571,21.07452],[85.68472,21.11837],[85.70034,21.13958],[85.72821,21.14384],[85.71015,21.18202],[85.63774,21.16596],[85.61079,21.13765],[85.54838,21.16687],[85.49752,21.11388],[85.39453,21.18498],[85.38103,21.16953],[85.3408,21.17971],[85.3207,21.16082],[85.29109,21.1812],[85.26867,21.17039],[85.24408,21.12457],[85.23316,21.07174],[85.18624,21.08092],[85.16772,21.05375],[85.26225,20.98446],[85.24463,20.9605],[85.24308,20.90395],[85.29108,20.87993],[85.30073,20.79691],[85.25758,20.77134],[85.24415,20.74173],[85.21566,20.73673],[85.19679,20.67813],[85.168,20.65953],[85.17529,20.70106],[85.14042,20.72987],[85.11481,20.68234],[85.13674,20.63999],[85.12933,20.61585]]]}},{"type":"Feature","properties":{"district_name":"Gajapati","canonical_district_name":"Gajapati","district_code_if_known":{"census_code":389,"lgd_code":353},"travel_region":"Chilika & Southern Coast","source":"geoBoundaries gbOpen IND ADM2 (William & Mary geoLab / UN OCHA HDX)","source_authority":"EXTERNAL_OPEN_DATA","source_license":"CC BY 4.0","source_version":"gbOpen IND ADM2","retrieved_at":"2026-09-08T10:19:35+05:30","geometry_status":"VALID","canonical_promotion_allowed":false,"provenance":{"source_id":"SRC_GEOBOUNDARIES_IND_ADM2","claim_id":"CLM_DISTRICT_BOUNDARIES_GEOBOUNDARIES_008","source_url":"https://www.geoboundaries.org/api/current/gbOpen/IND/ADM2/","source_tier":"TIER_C_INSTITUTIONAL","retrieved_at":"2026-09-08T10:19:35+05:30","licensing_status":"CREATIVE_COMMONS_CC_BY_4_0","freshness_class":"SLOW_CHANGING","review_verdict":"ACCEPT_STAGING"}},"geometry":{"type":"Polygon","coordinates":[[[84.42281,18.94753],[84.40829,18.93791],[84.40004,18.94974],[84.41625,18.97139],[84.39546,18.95884],[84.37169,18.97328],[84.37973,19.07039],[84.40279,19.10414],[84.36132,19.04937],[84.35827,19.05368],[84.38233,19.08934],[84.37745,19.14102],[84.39853,19.12244],[84.41755,19.14346],[84.39511,19.20801],[84.42515,19.26233],[84.416,19.33398],[84.44059,19.3632],[84.38242,19.38156],[84.40709,19.44552],[84.37464,19.48397],[84.37153,19.54003],[84.33257,19.54917],[84.30478,19.49612],[84.25667,19.4976],[84.2512,19.57229],[84.20035,19.59168],[84.15765,19.58207],[84.12747,19.63355],[84.09258,19.62959],[84.09048,19.61721],[84.06103,19.6308],[84.02871,19.63306],[84.01109,19.61822],[83.92708,19.63093],[83.94387,19.55055],[83.97706,19.53092],[83.96067,19.50052],[83.97851,19.48614],[83.94405,19.42045],[83.9469,19.39821],[84.01718,19.37474],[84.02987,19.34602],[84.01086,19.2521],[83.98284,19.20957],[83.99818,19.18864],[83.98444,19.16209],[84.03212,19.13163],[84.01479,19.12836],[84.0134,19.09411],[84.03002,19.05457],[83.97143,19.06617],[83.96514,19.04513],[83.98777,19.02107],[83.95854,18.98672],[83.91331,19.01807],[83.89777,18.98421],[83.86278,18.97999],[83.81794,19.02981],[83.80156,19.02838],[83.82477,18.91872],[83.84782,18.91327],[83.85123,18.86073],[83.89445,18.81488],[83.90954,18.82639],[83.94732,18.80614],[84.03455,18.81182],[84.07326,18.76147],[84.13039,18.7581],[84.15878,18.78555],[84.18722,18.77881],[84.22406,18.7971],[84.25953,18.78238],[84.29123,18.80071],[84.31978,18.78913],[84.35135,18.82184],[84.34326,18.87648],[84.36964,18.86089],[84.37857,18.87671],[84.35867,18.89295],[84.39483,18.88746],[84.37253,18.90599],[84.41698,18.90041],[84.41333,18.91587],[84.43652,18.92346],[84.42281,18.94753]]]}},{"type":"Feature","properties":{"district_name":"Ganjam","canonical_district_name":"Ganjam","district_code_if_known":{"census_code":388,"lgd_code":354},"travel_region":"Chilika & Southern Coast","source":"geoBoundaries gbOpen IND ADM2 (William & Mary geoLab / UN OCHA HDX)","source_authority":"EXTERNAL_OPEN_DATA","source_license":"CC BY 4.0","source_version":"gbOpen IND ADM2","retrieved_at":"2026-09-08T10:19:35+05:30","geometry_status":"VALID","canonical_promotion_allowed":false,"provenance":{"source_id":"SRC_GEOBOUNDARIES_IND_ADM2","claim_id":"CLM_DISTRICT_BOUNDARIES_GEOBOUNDARIES_008","source_url":"https://www.geoboundaries.org/api/current/gbOpen/IND/ADM2/","source_tier":"TIER_C_INSTITUTIONAL","retrieved_at":"2026-09-08T10:19:35+05:30","licensing_status":"CREATIVE_COMMONS_CC_BY_4_0","freshness_class":"SLOW_CHANGING","review_verdict":"ACCEPT_STAGING"}},"geometry":{"type":"Polygon","coordinates":[[[84.76758,19.08116],[84.86192,19.21605],[84.97387,19.31117],[85.08189,19.37596],[85.10443,19.41358],[85.17431,19.46788],[85.13682,19.52154],[85.17703,19.55828],[85.18417,19.67615],[85.07703,19.7921],[85.00942,19.80324],[84.97214,19.85344],[84.93601,19.87309],[84.94014,19.89772],[84.90654,19.91178],[84.92386,19.94196],[84.90189,19.99362],[84.8628,20.00095],[84.85665,20.03089],[84.79904,20.09509],[84.82193,20.12341],[84.83461,20.21752],[84.74368,20.24564],[84.69651,20.28204],[84.67341,20.27406],[84.63357,20.19437],[84.60029,20.17824],[84.58452,20.19151],[84.58694,20.1745],[84.55883,20.16171],[84.56421,20.14139],[84.5177,20.15564],[84.48592,20.14343],[84.4531,20.1703],[84.45348,20.19959],[84.43536,20.203],[84.44056,20.15118],[84.40084,20.07727],[84.41532,20.0544],[84.35604,20.03699],[84.32439,19.98843],[84.33634,19.97804],[84.35926,19.98832],[84.39299,19.95572],[84.46538,19.95305],[84.45082,19.8357],[84.38298,19.84228],[84.32114,19.87741],[84.30771,19.90622],[84.27794,19.87884],[84.18509,19.86033],[84.20194,19.83531],[84.16841,19.80431],[84.23418,19.78497],[84.19893,19.76107],[84.21091,19.75439],[84.18958,19.70355],[84.24688,19.64252],[84.22705,19.6264],[84.2512,19.57229],[84.2531,19.5012],[84.30478,19.49612],[84.32352,19.5452],[84.37153,19.54003],[84.37464,19.48397],[84.40709,19.44552],[84.38242,19.38156],[84.44059,19.3632],[84.416,19.33398],[84.42515,19.26233],[84.39511,19.20801],[84.41755,19.14346],[84.39853,19.12244],[84.37745,19.14102],[84.38233,19.08934],[84.35827,19.05368],[84.40279,19.10414],[84.37973,19.07039],[84.37169,18.97328],[84.39546,18.95884],[84.41625,18.97139],[84.39955,18.95379],[84.40962,18.93794],[84.44432,18.97528],[84.42225,19.02338],[84.47874,18.99086],[84.49645,19.03052],[84.57311,19.07458],[84.59466,19.02265],[84.61966,19.06443],[84.66143,19.06195],[84.67149,19.0759],[84.66107,19.09059],[84.62676,19.08607],[84.59878,19.13327],[84.66806,19.13135],[84.67188,19.16615],[84.71206,19.15847],[84.70441,19.11835],[84.76758,19.08116]]]}},{"type":"Feature","properties":{"district_name":"Jagatsinghapur","canonical_district_name":"Jagatsinghpur","district_code_if_known":{"census_code":380,"lgd_code":355},"travel_region":"Cuttack & Mahanadi","source":"geoBoundaries gbOpen IND ADM2 (William & Mary geoLab / UN OCHA HDX)","source_authority":"EXTERNAL_OPEN_DATA","source_license":"CC BY 4.0","source_version":"gbOpen IND ADM2","retrieved_at":"2026-09-08T10:19:35+05:30","geometry_status":"VALID","canonical_promotion_allowed":false,"provenance":{"source_id":"SRC_GEOBOUNDARIES_IND_ADM2","claim_id":"CLM_DISTRICT_BOUNDARIES_GEOBOUNDARIES_008","source_url":"https://www.geoboundaries.org/api/current/gbOpen/IND/ADM2/","source_tier":"TIER_C_INSTITUTIONAL","retrieved_at":"2026-09-08T10:19:35+05:30","licensing_status":"CREATIVE_COMMONS_CC_BY_4_0","freshness_class":"SLOW_CHANGING","review_verdict":"ACCEPT_STAGING"}},"geometry":{"type":"Polygon","coordinates":[[[86.37196,19.95592],[86.41633,19.97931],[86.4361,20.05629],[86.52453,20.17147],[86.60694,20.23152],[86.68044,20.25903],[86.71618,20.30115],[86.61206,20.34456],[86.56158,20.32811],[86.5289,20.34408],[86.45669,20.33406],[86.39807,20.36907],[86.35296,20.35416],[86.34193,20.37083],[86.30273,20.35628],[86.27402,20.37268],[86.22862,20.36206],[86.17512,20.37827],[86.13678,20.35758],[86.02736,20.40189],[86.01473,20.38178],[86.03551,20.34064],[86.03247,20.29742],[86.06916,20.27219],[86.07899,20.24621],[86.15112,20.22264],[86.14644,20.14665],[86.17045,20.07427],[86.20942,20.04032],[86.28189,20.05588],[86.27303,20.04485],[86.3273,20.01945],[86.37196,19.95592]]]}},{"type":"Feature","properties":{"district_name":"Jajapur","canonical_district_name":"Jajpur","district_code_if_known":{"census_code":382,"lgd_code":356},"travel_region":"Cuttack & Mahanadi","source":"geoBoundaries gbOpen IND ADM2 (William & Mary geoLab / UN OCHA HDX)","source_authority":"EXTERNAL_OPEN_DATA","source_license":"CC BY 4.0","source_version":"gbOpen IND ADM2","retrieved_at":"2026-09-08T10:19:35+05:30","geometry_status":"VALID","canonical_promotion_allowed":false,"provenance":{"source_id":"SRC_GEOBOUNDARIES_IND_ADM2","claim_id":"CLM_DISTRICT_BOUNDARIES_GEOBOUNDARIES_008","source_url":"https://www.geoboundaries.org/api/current/gbOpen/IND/ADM2/","source_tier":"TIER_C_INSTITUTIONAL","retrieved_at":"2026-09-08T10:19:35+05:30","licensing_status":"CREATIVE_COMMONS_CC_BY_4_0","freshness_class":"SLOW_CHANGING","review_verdict":"ACCEPT_STAGING"}},"geometry":{"type":"Polygon","coordinates":[[[85.90832,20.7129],[86.02488,20.57208],[86.0522,20.57482],[86.04783,20.59075],[86.17573,20.64535],[86.18118,20.65949],[86.19602,20.64644],[86.16763,20.63952],[86.18893,20.62437],[86.2099,20.63372],[86.26238,20.58974],[86.30412,20.57933],[86.32267,20.58711],[86.32288,20.63055],[86.33328,20.61069],[86.37497,20.5952],[86.45628,20.6509],[86.455,20.67683],[86.47033,20.68832],[86.54683,20.69604],[86.56232,20.74011],[86.54248,20.73471],[86.54414,20.75453],[86.56843,20.77648],[86.60931,20.77367],[86.6253,20.80797],[86.59646,20.85769],[86.56978,20.86635],[86.49797,20.86902],[86.45217,20.84531],[86.40132,20.86442],[86.35469,20.85366],[86.32929,20.86606],[86.33578,20.8788],[86.28199,20.907],[86.29115,21.01517],[86.26158,21.03968],[86.13454,21.07464],[86.09545,21.05125],[86.08927,21.01871],[86.04793,21.02454],[86.02831,21.07357],[86.08678,21.1685],[86.03843,21.15707],[86.02345,21.1378],[85.93462,21.13662],[85.9185,21.09459],[85.8873,21.08664],[85.77546,21.10436],[85.75765,21.14943],[85.70034,21.13958],[85.68472,21.11837],[85.70571,21.07452],[85.73023,21.06359],[85.72412,20.98377],[85.77926,20.98217],[85.82757,20.92667],[85.91975,20.92788],[85.90115,20.84717],[86.03347,20.80938],[86.02566,20.72669],[85.9885,20.7391],[85.90832,20.7129]]]}},{"type":"Feature","properties":{"district_name":"Jharsuguda","canonical_district_name":"Jharsuguda","district_code_if_known":{"census_code":371,"lgd_code":357},"travel_region":"Sambalpur & Western Odisha","source":"geoBoundaries gbOpen IND ADM2 (William & Mary geoLab / UN OCHA HDX)","source_authority":"EXTERNAL_OPEN_DATA","source_license":"CC BY 4.0","source_version":"gbOpen IND ADM2","retrieved_at":"2026-09-08T10:19:35+05:30","geometry_status":"VALID","canonical_promotion_allowed":false,"provenance":{"source_id":"SRC_GEOBOUNDARIES_IND_ADM2","claim_id":"CLM_DISTRICT_BOUNDARIES_GEOBOUNDARIES_008","source_url":"https://www.geoboundaries.org/api/current/gbOpen/IND/ADM2/","source_tier":"TIER_C_INSTITUTIONAL","retrieved_at":"2026-09-08T10:19:35+05:30","licensing_status":"CREATIVE_COMMONS_CC_BY_4_0","freshness_class":"SLOW_CHANGING","review_verdict":"ACCEPT_STAGING"}},"geometry":{"type":"Polygon","coordinates":[[[83.49012,21.64308],[83.52706,21.67315],[83.55979,21.74355],[83.69481,21.70209],[83.72709,21.63124],[83.79973,21.5667],[83.82331,21.59467],[83.96398,21.57161],[83.98115,21.59583],[83.97305,21.70919],[83.94406,21.72809],[83.96974,21.76618],[83.99071,21.75228],[84.01482,21.78663],[84.03854,21.75957],[84.11507,21.78945],[84.18998,21.7547],[84.28633,21.76249],[84.37718,21.95493],[84.36909,21.9725],[84.39325,21.99277],[84.39038,22.02205],[84.35759,22.037],[84.29951,22.03415],[84.23318,21.97543],[84.1213,22.01154],[84.1101,21.99377],[84.07289,21.99013],[84.08944,21.96752],[84.07869,21.93764],[84.02911,21.95327],[83.98085,21.90675],[83.96111,21.9418],[83.89783,21.94574],[83.70365,21.77492],[83.68683,21.8041],[83.64308,21.81711],[83.62951,21.84879],[83.59279,21.82606],[83.53828,21.83509],[83.54359,21.79719],[83.49797,21.81773],[83.47423,21.78596],[83.48508,21.73131],[83.46361,21.69854],[83.4282,21.68988],[83.44783,21.65858],[83.49012,21.64308]]]}},{"type":"Feature","properties":{"district_name":"Kalahandi","canonical_district_name":"Kalahandi","district_code_if_known":{"census_code":395,"lgd_code":358},"travel_region":"Koraput & Tribal Highlands","source":"geoBoundaries gbOpen IND ADM2 (William & Mary geoLab / UN OCHA HDX)","source_authority":"EXTERNAL_OPEN_DATA","source_license":"CC BY 4.0","source_version":"gbOpen IND ADM2","retrieved_at":"2026-09-08T10:19:35+05:30","geometry_status":"VALID","canonical_promotion_allowed":false,"provenance":{"source_id":"SRC_GEOBOUNDARIES_IND_ADM2","claim_id":"CLM_DISTRICT_BOUNDARIES_GEOBOUNDARIES_008","source_url":"https://www.geoboundaries.org/api/current/gbOpen/IND/ADM2/","source_tier":"TIER_C_INSTITUTIONAL","retrieved_at":"2026-09-08T10:19:35+05:30","licensing_status":"CREATIVE_COMMONS_CC_BY_4_0","freshness_class":"SLOW_CHANGING","review_verdict":"ACCEPT_STAGING"}},"geometry":{"type":"Polygon","coordinates":[[[82.59274,19.77713],[82.60323,19.74705],[82.56409,19.72713],[82.57843,19.68063],[82.55747,19.6448],[82.52812,19.63062],[82.54995,19.61042],[82.53201,19.5822],[82.55924,19.57996],[82.5691,19.54361],[82.61701,19.53903],[82.60836,19.5209],[82.64279,19.51124],[82.63408,19.483],[82.69363,19.41763],[82.70945,19.41926],[82.72755,19.34691],[82.74303,19.34981],[82.75729,19.32865],[82.78119,19.34447],[82.84928,19.32403],[82.82707,19.25723],[82.80555,19.2375],[82.83903,19.2356],[82.87884,19.18471],[82.90226,19.23004],[82.89076,19.25497],[82.90491,19.28579],[82.9575,19.32559],[82.95298,19.39123],[82.92862,19.44222],[82.99174,19.44797],[82.99375,19.4907],[83.02697,19.51302],[83.03896,19.55319],[83.07044,19.56288],[83.10731,19.54036],[83.10947,19.5097],[83.13546,19.50981],[83.1592,19.48612],[83.15027,19.46953],[83.16815,19.43276],[83.18547,19.42694],[83.18803,19.4645],[83.21813,19.43608],[83.20527,19.46414],[83.22849,19.50394],[83.24806,19.50885],[83.26751,19.60155],[83.3733,19.59882],[83.38618,19.66767],[83.43083,19.69875],[83.45572,19.74064],[83.45929,19.79738],[83.43901,19.80721],[83.40853,19.92398],[83.44286,19.93381],[83.45221,19.97314],[83.49608,19.9602],[83.50621,19.99738],[83.56795,20.05732],[83.58403,20.11527],[83.63555,20.0905],[83.67804,20.1132],[83.71089,20.10305],[83.73402,20.14991],[83.79066,20.18133],[83.78609,20.21316],[83.7322,20.21367],[83.74127,20.22498],[83.72035,20.23954],[83.70561,20.3709],[83.6525,20.38998],[83.65526,20.36827],[83.63001,20.36915],[83.62507,20.35126],[83.5771,20.36567],[83.5558,20.40099],[83.50823,20.41602],[83.49189,20.40669],[83.48769,20.45461],[83.42347,20.40393],[83.36031,20.31561],[83.3003,20.30408],[83.24117,20.25921],[83.22637,20.20557],[83.18365,20.17339],[83.14553,20.17084],[83.12825,20.19454],[83.09097,20.19925],[83.01342,20.17105],[82.93238,20.17987],[82.90921,20.14844],[82.82497,20.16611],[82.81529,20.10235],[82.79037,20.10218],[82.75643,20.0562],[82.73638,20.05851],[82.7407,20.02864],[82.70482,19.99845],[82.71852,19.98906],[82.70813,19.89926],[82.72512,19.87684],[82.71034,19.83713],[82.65338,19.83141],[82.63064,19.79539],[82.59274,19.77713]]]}},{"type":"Feature","properties":{"district_name":"Kandhamal","canonical_district_name":"Kandhamal","district_code_if_known":{"census_code":390,"lgd_code":359},"travel_region":"Kandhamal & Southern Hills","source":"geoBoundaries gbOpen IND ADM2 (William & Mary geoLab / UN OCHA HDX)","source_authority":"EXTERNAL_OPEN_DATA","source_license":"CC BY 4.0","source_version":"gbOpen IND ADM2","retrieved_at":"2026-09-08T10:19:35+05:30","geometry_status":"VALID","canonical_promotion_allowed":false,"provenance":{"source_id":"SRC_GEOBOUNDARIES_IND_ADM2","claim_id":"CLM_DISTRICT_BOUNDARIES_GEOBOUNDARIES_008","source_url":"https://www.geoboundaries.org/api/current/gbOpen/IND/ADM2/","source_tier":"TIER_C_INSTITUTIONAL","retrieved_at":"2026-09-08T10:19:35+05:30","licensing_status":"CREATIVE_COMMONS_CC_BY_4_0","freshness_class":"SLOW_CHANGING","review_verdict":"ACCEPT_STAGING"}},"geometry":{"type":"Polygon","coordinates":[[[84.2409,19.57588],[84.22705,19.6264],[84.24688,19.64252],[84.24069,19.66111],[84.18958,19.70355],[84.21091,19.75439],[84.19893,19.76107],[84.23418,19.78497],[84.17421,19.79289],[84.17394,19.82026],[84.20194,19.83531],[84.18509,19.86033],[84.27794,19.87884],[84.30771,19.90622],[84.34427,19.8615],[84.44564,19.83103],[84.46262,19.85959],[84.46538,19.95305],[84.39299,19.95572],[84.35556,19.98971],[84.33634,19.97804],[84.33074,20.00685],[84.35604,20.03699],[84.41532,20.0544],[84.40084,20.07727],[84.44056,20.15118],[84.43735,20.20649],[84.48592,20.14343],[84.5177,20.15564],[84.56421,20.14139],[84.55883,20.16171],[84.58694,20.1745],[84.54726,20.24507],[84.54381,20.32738],[84.51626,20.3214],[84.5128,20.34067],[84.48733,20.34292],[84.51959,20.37307],[84.51265,20.39868],[84.48723,20.38727],[84.4627,20.39739],[84.46528,20.4423],[84.429,20.48404],[84.43511,20.50915],[84.393,20.53192],[84.36057,20.67438],[84.31889,20.69499],[84.27817,20.675],[84.28252,20.64332],[84.22133,20.58775],[84.17821,20.60515],[84.14551,20.58453],[84.07434,20.59872],[84.00684,20.57018],[83.94305,20.5831],[83.91699,20.61691],[83.91465,20.58081],[83.85825,20.5728],[83.79619,20.51028],[83.82956,20.45184],[83.81175,20.45037],[83.81274,20.43388],[83.78755,20.44371],[83.77876,20.41257],[83.72213,20.43524],[83.69537,20.41668],[83.6659,20.4236],[83.6525,20.38998],[83.70561,20.3709],[83.72035,20.23954],[83.74127,20.22498],[83.7322,20.21367],[83.78609,20.21316],[83.79066,20.18133],[83.73402,20.14991],[83.71089,20.10305],[83.67804,20.1132],[83.63555,20.0905],[83.58403,20.11527],[83.56795,20.05732],[83.50621,19.99738],[83.49608,19.9602],[83.56247,19.92927],[83.52895,19.85828],[83.61944,19.81564],[83.60991,19.75546],[83.64476,19.70426],[83.6374,19.673],[83.64918,19.65856],[83.69458,19.68889],[83.74042,19.65514],[83.76898,19.71357],[83.81392,19.7176],[83.84342,19.71023],[83.87387,19.67472],[83.93258,19.67745],[83.94306,19.6357],[83.97601,19.62119],[84.01109,19.61822],[84.02871,19.63306],[84.09048,19.61721],[84.09258,19.62959],[84.12747,19.63355],[84.15765,19.58207],[84.20035,19.59168],[84.2409,19.57588]]]}},{"type":"Feature","properties":{"district_name":"Kendrapara","canonical_district_name":"Kendrapara","district_code_if_known":{"census_code":379,"lgd_code":360},"travel_region":"Northern Odisha & Wildlife","source":"geoBoundaries gbOpen IND ADM2 (William & Mary geoLab / UN OCHA HDX)","source_authority":"EXTERNAL_OPEN_DATA","source_license":"CC BY 4.0","source_version":"gbOpen IND ADM2","retrieved_at":"2026-09-08T10:19:35+05:30","geometry_status":"VALID","canonical_promotion_allowed":false,"provenance":{"source_id":"SRC_GEOBOUNDARIES_IND_ADM2","claim_id":"CLM_DISTRICT_BOUNDARIES_GEOBOUNDARIES_008","source_url":"https://www.geoboundaries.org/api/current/gbOpen/IND/ADM2/","source_tier":"TIER_C_INSTITUTIONAL","retrieved_at":"2026-09-08T10:19:35+05:30","licensing_status":"CREATIVE_COMMONS_CC_BY_4_0","freshness_class":"SLOW_CHANGING","review_verdict":"ACCEPT_STAGING"}},"geometry":{"type":"MultiPolygon","coordinates":[[[[86.71618,20.30115],[86.78236,20.33834],[86.77604,20.39001],[86.74572,20.37857],[86.73818,20.39686],[86.72663,20.37794],[86.71157,20.39598],[86.73271,20.41113],[86.73693,20.46593],[86.72518,20.48003],[86.74474,20.46995],[86.75406,20.51769],[86.77315,20.50632],[86.80308,20.55007],[87.05563,20.71132],[86.96532,20.68904],[86.96844,20.70654],[86.90272,20.7102],[87.00607,20.71367],[86.99314,20.76968],[86.85671,20.77323],[86.8127,20.73024],[86.76224,20.73807],[86.76016,20.77099],[86.71313,20.76321],[86.67956,20.79216],[86.6292,20.79906],[86.60931,20.77367],[86.56843,20.77648],[86.54414,20.75453],[86.54248,20.73471],[86.56232,20.74011],[86.54389,20.69405],[86.47033,20.68832],[86.455,20.67683],[86.45628,20.6509],[86.37497,20.5952],[86.33328,20.61069],[86.32288,20.63055],[86.32267,20.58711],[86.28345,20.58453],[86.25977,20.56343],[86.2729,20.55984],[86.25266,20.53897],[86.27746,20.51786],[86.26797,20.45153],[86.28067,20.39789],[86.25462,20.36714],[86.32214,20.35657],[86.34193,20.37083],[86.35296,20.35416],[86.39807,20.36907],[86.45669,20.33406],[86.5289,20.34408],[86.55112,20.32783],[86.61206,20.34456],[86.71618,20.30115]]],[[[86.79081,20.44444],[86.80442,20.46244],[86.80996,20.4763],[86.80366,20.5008],[86.79081,20.44444]]],[[[86.78964,20.38753],[86.79607,20.41176],[86.7913,20.42827],[86.78814,20.40457],[86.78964,20.38753]]],[[[86.79623,20.3723],[86.791,20.37297],[86.79137,20.36459],[86.79623,20.3723]]],[[[86.79758,20.37625],[86.79113,20.37569],[86.79638,20.37389],[86.79758,20.37625]]],[[[86.79194,20.38574],[86.79457,20.38649],[86.79373,20.3876],[86.79194,20.38574]]]]}},{"type":"Feature","properties":{"district_name":"Kendujhar","canonical_district_name":"Keonjhar","district_code_if_known":{"census_code":375,"lgd_code":361},"travel_region":"Northern Odisha & Wildlife","source":"geoBoundaries gbOpen IND ADM2 (William & Mary geoLab / UN OCHA HDX)","source_authority":"EXTERNAL_OPEN_DATA","source_license":"CC BY 4.0","source_version":"gbOpen IND ADM2","retrieved_at":"2026-09-08T10:19:35+05:30","geometry_status":"VALID","canonical_promotion_allowed":false,"provenance":{"source_id":"SRC_GEOBOUNDARIES_IND_ADM2","claim_id":"CLM_DISTRICT_BOUNDARIES_GEOBOUNDARIES_008","source_url":"https://www.geoboundaries.org/api/current/gbOpen/IND/ADM2/","source_tier":"TIER_C_INSTITUTIONAL","retrieved_at":"2026-09-08T10:19:35+05:30","licensing_status":"CREATIVE_COMMONS_CC_BY_4_0","freshness_class":"SLOW_CHANGING","review_verdict":"ACCEPT_STAGING"}},"geometry":{"type":"Polygon","coordinates":[[[85.23692,22.00449],[85.27936,21.95751],[85.28234,21.96813],[85.29529,21.95344],[85.3687,21.94048],[85.37693,21.91017],[85.34342,21.8278],[85.31715,21.81921],[85.28536,21.83642],[85.24377,21.80408],[85.23062,21.82262],[85.20435,21.76853],[85.21525,21.74157],[85.1867,21.70856],[85.19721,21.66047],[85.21097,21.67531],[85.25092,21.67646],[85.28765,21.58751],[85.31353,21.56519],[85.30415,21.53224],[85.32412,21.53199],[85.32885,21.51048],[85.33361,21.48203],[85.30849,21.44964],[85.25905,21.45158],[85.3435,21.35934],[85.32649,21.31999],[85.31562,21.3294],[85.27449,21.30211],[85.27381,21.27561],[85.36808,21.2406],[85.42309,21.15543],[85.49752,21.11388],[85.54838,21.16687],[85.61079,21.13765],[85.6871,21.18581],[85.71015,21.18202],[85.73641,21.13915],[85.76353,21.14666],[85.77546,21.10436],[85.8873,21.08664],[85.9185,21.09459],[85.93462,21.13662],[86.02345,21.1378],[86.03843,21.15707],[86.08678,21.1685],[86.02831,21.07357],[86.04793,21.02454],[86.08927,21.01871],[86.09545,21.05125],[86.13454,21.07464],[86.30646,21.01748],[86.32484,21.06671],[86.30665,21.0881],[86.31033,21.11187],[86.27405,21.14732],[86.29265,21.17621],[86.31408,21.17114],[86.35026,21.19235],[86.35278,21.23515],[86.37489,21.24971],[86.35816,21.32019],[86.26963,21.37966],[86.21013,21.28338],[86.18997,21.27378],[86.15958,21.29275],[86.1382,21.26642],[86.12031,21.27244],[86.09378,21.31192],[86.16333,21.42059],[86.12107,21.47772],[86.00983,21.53275],[86.08019,21.62939],[86.08179,21.69002],[86.06066,21.68871],[86.05098,21.71456],[86.02789,21.69249],[86.01777,21.74535],[85.9715,21.74006],[85.90604,21.76786],[85.8828,21.79451],[85.81069,21.81249],[85.79437,21.95449],[85.73938,21.99364],[85.7051,21.98613],[85.70348,22.00773],[85.67146,22.01355],[85.66363,22.033],[85.67797,22.06408],[85.65026,22.09459],[85.59677,22.07875],[85.54526,22.09084],[85.41615,22.16013],[85.36909,22.1586],[85.36725,22.12554],[85.32892,22.12905],[85.30601,22.11114],[85.23692,22.00449]]]}},{"type":"Feature","properties":{"district_name":"Khordha","canonical_district_name":"Khordha","district_code_if_known":{"census_code":386,"lgd_code":362},"travel_region":"Bhubaneswar & Central","source":"geoBoundaries gbOpen IND ADM2 (William & Mary geoLab / UN OCHA HDX)","source_authority":"EXTERNAL_OPEN_DATA","source_license":"CC BY 4.0","source_version":"gbOpen IND ADM2","retrieved_at":"2026-09-08T10:19:35+05:30","geometry_status":"VALID","canonical_promotion_allowed":false,"provenance":{"source_id":"SRC_GEOBOUNDARIES_IND_ADM2","claim_id":"CLM_DISTRICT_BOUNDARIES_GEOBOUNDARIES_008","source_url":"https://www.geoboundaries.org/api/current/gbOpen/IND/ADM2/","source_tier":"TIER_C_INSTITUTIONAL","retrieved_at":"2026-09-08T10:19:35+05:30","licensing_status":"CREATIVE_COMMONS_CC_BY_4_0","freshness_class":"SLOW_CHANGING","review_verdict":"ACCEPT_STAGING"}},"geometry":{"type":"Polygon","coordinates":[[[86.08227,20.10696],[86.03945,20.13578],[86.05448,20.16573],[86.04254,20.1807],[86.02745,20.17141],[86.00744,20.22472],[85.93372,20.27323],[85.91405,20.31767],[85.93139,20.31218],[85.92859,20.32898],[85.90011,20.36813],[85.85537,20.38753],[85.83939,20.4127],[85.82293,20.4083],[85.80716,20.43424],[85.78702,20.43339],[85.787,20.41011],[85.71549,20.39992],[85.67863,20.32488],[85.64584,20.32488],[85.6264,20.29263],[85.55279,20.31373],[85.5227,20.29395],[85.4612,20.29512],[85.45437,20.26715],[85.42164,20.27284],[85.40801,20.25671],[85.38261,20.28621],[85.33474,20.28092],[85.32713,20.25434],[85.34281,20.25166],[85.32387,20.23146],[85.21598,20.21411],[85.20558,20.15514],[85.24073,20.11509],[85.35149,20.18889],[85.37007,20.17838],[85.35599,20.14577],[85.38438,20.15643],[85.4142,20.12812],[85.38067,20.07212],[85.41482,20.02122],[85.43483,20.02766],[85.41659,19.99558],[85.4406,19.99489],[85.45694,19.97372],[85.42122,19.92754],[85.36335,19.95879],[85.33161,19.92627],[85.24514,19.90608],[85.16704,19.90513],[85.1277,19.93389],[85.09823,19.93113],[85.02865,19.90389],[84.94014,19.89772],[84.93601,19.87309],[84.97214,19.85344],[85.00942,19.80324],[85.07703,19.7921],[85.18417,19.67615],[85.20578,19.68495],[85.19082,19.71176],[85.21944,19.74625],[85.2416,19.74189],[85.25472,19.78418],[85.32346,19.79653],[85.39699,19.85912],[85.40651,19.88633],[85.5363,19.89173],[85.56078,19.87904],[85.56445,19.85522],[85.56657,19.9174],[85.52848,19.94172],[85.51005,19.9264],[85.51947,19.94251],[85.50221,19.94609],[85.53135,19.97794],[85.56501,19.95011],[85.5726,20.02441],[85.59445,19.99554],[85.61732,20.01869],[85.61755,19.99191],[85.63092,20.02517],[85.6202,20.05933],[85.64538,20.08442],[85.63314,20.1006],[85.65207,20.09694],[85.6532,20.06617],[85.67994,20.07215],[85.69214,20.09569],[85.67755,20.12357],[85.69388,20.15238],[85.72235,20.13023],[85.76525,20.16721],[85.79642,20.15147],[85.82686,20.15902],[85.83925,20.19489],[85.85596,20.17619],[85.85344,20.19414],[85.88903,20.177],[85.90065,20.14849],[85.87514,20.12291],[85.88522,20.11064],[85.90493,20.12724],[85.99502,20.10728],[86.00743,20.11681],[86.02075,20.10332],[86.08227,20.10696]]]}},{"type":"Feature","properties":{"district_name":"Koraput","canonical_district_name":"Koraput","district_code_if_known":{"census_code":398,"lgd_code":363},"travel_region":"Koraput & Tribal Highlands","source":"geoBoundaries gbOpen IND ADM2 (William & Mary geoLab / UN OCHA HDX)","source_authority":"EXTERNAL_OPEN_DATA","source_license":"CC BY 4.0","source_version":"gbOpen IND ADM2","retrieved_at":"2026-09-08T10:19:35+05:30","geometry_status":"VALID","canonical_promotion_allowed":false,"provenance":{"source_id":"SRC_GEOBOUNDARIES_IND_ADM2","claim_id":"CLM_DISTRICT_BOUNDARIES_GEOBOUNDARIES_008","source_url":"https://www.geoboundaries.org/api/current/gbOpen/IND/ADM2/","source_tier":"TIER_C_INSTITUTIONAL","retrieved_at":"2026-09-08T10:19:35+05:30","licensing_status":"CREATIVE_COMMONS_CC_BY_4_0","freshness_class":"SLOW_CHANGING","review_verdict":"ACCEPT_STAGING"}},"geometry":{"type":"Polygon","coordinates":[[[83.07403,18.40262],[83.068,18.438],[83.04563,18.42832],[83.04549,18.44417],[83.02359,18.45372],[83.09743,18.5471],[83.04059,18.55699],[83.03496,18.57701],[83.06204,18.59551],[83.01614,18.5974],[83.02933,18.6194],[83.0196,18.64791],[83.05903,18.66306],[83.14092,18.7812],[83.18977,18.76922],[83.20979,18.7471],[83.19198,18.73438],[83.21302,18.7248],[83.22732,18.77467],[83.27402,18.76593],[83.28739,18.79847],[83.36413,18.80905],[83.36132,18.83637],[83.40412,18.83961],[83.41824,18.86569],[83.38169,18.89468],[83.39169,18.90844],[83.35797,18.92461],[83.35682,18.94248],[83.38802,18.93198],[83.36885,18.96201],[83.3528,18.96488],[83.34687,18.92487],[83.32668,18.93705],[83.34025,18.95195],[83.31212,18.99547],[83.33898,18.99857],[83.36425,19.0469],[83.34447,19.05538],[83.34101,19.10206],[83.28094,19.12269],[83.26691,19.05036],[83.23875,19.02399],[83.23958,18.97044],[83.20397,18.97856],[83.19019,19.01558],[83.1949,19.07553],[83.16748,19.09707],[83.20168,19.13741],[83.24405,19.12717],[83.25985,19.16485],[83.24017,19.16814],[83.20212,19.16767],[83.2046,19.15016],[83.16098,19.12392],[83.13753,19.13736],[83.13082,19.09434],[83.10429,19.11254],[83.06372,19.04488],[83.02305,19.06489],[83.03084,19.08118],[82.98402,19.13383],[82.97951,19.17433],[82.95048,19.15544],[82.90467,19.15937],[82.8635,19.20677],[82.82868,19.18086],[82.82984,19.14861],[82.81823,19.17105],[82.80175,19.15015],[82.75645,19.18397],[82.74177,19.16055],[82.72369,19.16042],[82.72388,19.1741],[82.67958,19.19658],[82.63935,19.176],[82.63747,19.14903],[82.61814,19.15865],[82.61368,19.19503],[82.58195,19.1962],[82.57365,19.21214],[82.43622,19.17148],[82.43705,19.1963],[82.40996,19.21403],[82.41166,19.18111],[82.36723,19.20465],[82.32859,19.18639],[82.32364,19.20152],[82.30073,19.1989],[82.29219,19.17544],[82.2328,19.16271],[82.23773,19.13471],[82.20207,19.12844],[82.22012,19.09753],[82.20212,19.06725],[82.2331,19.02174],[82.24765,18.91784],[82.18084,18.90262],[82.16632,18.87682],[82.16926,18.7984],[82.13722,18.76521],[82.09288,18.7659],[82.093,18.73999],[82.1303,18.72346],[82.12735,18.70808],[82.14752,18.69265],[82.13552,18.67658],[82.14845,18.66015],[82.16131,18.6696],[82.17613,18.63378],[82.19207,18.63144],[82.22533,18.66957],[82.23297,18.6255],[82.26507,18.58859],[82.31482,18.57891],[82.36541,18.62397],[82.41018,18.59573],[82.44733,18.60009],[82.44073,18.56524],[82.41043,18.55464],[82.40698,18.51827],[82.43741,18.49351],[82.48987,18.54691],[82.48974,18.52356],[82.53141,18.5125],[82.52444,18.46454],[82.53847,18.44303],[82.56207,18.44639],[82.54064,18.40227],[82.60736,18.38056],[82.61963,18.35547],[82.60487,18.34987],[82.61051,18.32632],[82.58482,18.31586],[82.59932,18.30104],[82.59761,18.26589],[82.64007,18.23782],[82.6672,18.2958],[82.77538,18.34032],[82.80157,18.40411],[82.78448,18.42875],[82.80742,18.44845],[82.85317,18.41893],[82.89286,18.42196],[82.89317,18.3879],[82.91102,18.36526],[82.98469,18.36435],[83.00018,18.38441],[83.0254,18.39393],[83.04772,18.37956],[83.07403,18.40262]]]}},{"type":"Feature","properties":{"district_name":"Malkangiri","canonical_district_name":"Malkangiri","district_code_if_known":{"census_code":399,"lgd_code":364},"travel_region":"Koraput & Tribal Highlands","source":"geoBoundaries gbOpen IND ADM2 (William & Mary geoLab / UN OCHA HDX)","source_authority":"EXTERNAL_OPEN_DATA","source_license":"CC BY 4.0","source_version":"gbOpen IND ADM2","retrieved_at":"2026-09-08T10:19:35+05:30","geometry_status":"VALID","canonical_promotion_allowed":false,"provenance":{"source_id":"SRC_GEOBOUNDARIES_IND_ADM2","claim_id":"CLM_DISTRICT_BOUNDARIES_GEOBOUNDARIES_008","source_url":"https://www.geoboundaries.org/api/current/gbOpen/IND/ADM2/","source_tier":"TIER_C_INSTITUTIONAL","retrieved_at":"2026-09-08T10:19:35+05:30","licensing_status":"CREATIVE_COMMONS_CC_BY_4_0","freshness_class":"SLOW_CHANGING","review_verdict":"ACCEPT_STAGING"}},"geometry":{"type":"Polygon","coordinates":[[[81.80971,17.94487],[82.01027,18.03255],[82.01525,18.05804],[82.03326,18.06672],[82.06833,18.05404],[82.0808,18.07453],[82.13569,18.05999],[82.14099,18.04465],[82.16894,18.05266],[82.18604,18.01972],[82.26183,17.98949],[82.27914,18.00704],[82.27554,18.05746],[82.30648,18.07116],[82.32181,18.04404],[82.32589,18.05778],[82.34492,18.05654],[82.34191,18.15146],[82.36611,18.13425],[82.37368,18.14879],[82.3188,18.18359],[82.31459,18.20459],[82.3413,18.22472],[82.32979,18.23135],[82.34534,18.27506],[82.38033,18.28296],[82.40143,18.31525],[82.39278,18.32748],[82.35718,18.31491],[82.34286,18.32584],[82.39281,18.37779],[82.36944,18.41846],[82.43517,18.48549],[82.40476,18.52821],[82.41694,18.56502],[82.44427,18.56977],[82.44733,18.60009],[82.41018,18.59573],[82.36541,18.62397],[82.31482,18.57891],[82.26507,18.58859],[82.23297,18.6255],[82.22533,18.66957],[82.19207,18.63144],[82.17613,18.63378],[82.16131,18.6696],[82.14845,18.66015],[82.13552,18.67658],[82.14752,18.69265],[82.12735,18.70808],[82.1303,18.72346],[82.093,18.73999],[82.08679,18.71966],[82.04194,18.72631],[81.96539,18.69089],[81.95569,18.6364],[81.89361,18.65778],[81.89663,18.62851],[81.96281,18.59439],[81.95353,18.56502],[81.91689,18.5719],[81.90513,18.53611],[81.86626,18.52075],[81.85265,18.48929],[81.77046,18.41908],[81.75332,18.35323],[81.66649,18.34706],[81.66707,18.31893],[81.6018,18.30904],[81.53639,18.26684],[81.51324,18.19169],[81.5311,18.16521],[81.51717,18.10047],[81.48245,18.03665],[81.48591,17.97827],[81.45387,17.93448],[81.44592,17.88435],[81.40247,17.89345],[81.39368,17.81505],[81.46815,17.83324],[81.4899,17.81145],[81.57746,17.83656],[81.61987,17.82412],[81.67176,17.88564],[81.69698,17.89353],[81.71188,17.86994],[81.80971,17.94487]]]}},{"type":"Feature","properties":{"district_name":"Mayurbhanj","canonical_district_name":"Mayurbhanj","district_code_if_known":{"census_code":376,"lgd_code":365},"travel_region":"Northern Odisha & Wildlife","source":"geoBoundaries gbOpen IND ADM2 (William & Mary geoLab / UN OCHA HDX)","source_authority":"EXTERNAL_OPEN_DATA","source_license":"CC BY 4.0","source_version":"gbOpen IND ADM2","retrieved_at":"2026-09-08T10:19:35+05:30","geometry_status":"VALID","canonical_promotion_allowed":false,"provenance":{"source_id":"SRC_GEOBOUNDARIES_IND_ADM2","claim_id":"CLM_DISTRICT_BOUNDARIES_GEOBOUNDARIES_008","source_url":"https://www.geoboundaries.org/api/current/gbOpen/IND/ADM2/","source_tier":"TIER_C_INSTITUTIONAL","retrieved_at":"2026-09-08T10:19:35+05:30","licensing_status":"CREATIVE_COMMONS_CC_BY_4_0","freshness_class":"SLOW_CHANGING","review_verdict":"ACCEPT_STAGING"}},"geometry":{"type":"Polygon","coordinates":[[[85.98611,22.5135],[85.95892,22.45981],[86.0141,22.42824],[86.02685,22.38575],[85.99825,22.34221],[86.02576,22.33348],[86.01375,22.31406],[86.0486,22.31032],[86.01383,22.29681],[85.97515,22.24764],[86.03202,22.18955],[85.99996,22.13619],[86.00791,22.11746],[85.95688,22.03619],[85.91763,22.00939],[85.91081,21.97128],[85.89956,21.98291],[85.8238,21.97461],[85.77685,21.98828],[85.76164,22.01289],[85.78445,22.04073],[85.77586,22.05572],[85.79343,22.08158],[85.83621,22.08139],[85.80757,22.11518],[85.72792,22.06253],[85.67755,22.05585],[85.66363,22.033],[85.67146,22.01355],[85.70348,22.00773],[85.7051,21.98613],[85.73938,21.99364],[85.79437,21.95449],[85.81069,21.81249],[85.8828,21.79451],[85.90604,21.76786],[85.9715,21.74006],[86.01777,21.74535],[86.02789,21.69249],[86.05098,21.71456],[86.06066,21.68871],[86.08179,21.69002],[86.08019,21.62939],[86.00983,21.53275],[86.12107,21.47772],[86.16333,21.42059],[86.09378,21.31192],[86.12031,21.27244],[86.1382,21.26642],[86.15958,21.29275],[86.18997,21.27378],[86.21013,21.28338],[86.26963,21.37966],[86.35816,21.32019],[86.36135,21.30073],[86.42743,21.33223],[86.52937,21.42218],[86.58492,21.52132],[86.637,21.52956],[86.65214,21.57928],[86.68763,21.59441],[86.70587,21.58489],[86.75402,21.60581],[86.8489,21.60541],[86.87963,21.57403],[86.89498,21.58499],[86.88706,21.62551],[86.96073,21.55857],[87.03016,21.58278],[87.00062,21.60564],[87.01193,21.64832],[86.99327,21.64915],[86.98912,21.66741],[87.015,21.67457],[87.03089,21.66077],[87.05377,21.68373],[87.02685,21.74117],[87.04774,21.73966],[87.04824,21.71107],[87.07159,21.70682],[87.09372,21.72698],[87.08721,21.73794],[87.12226,21.75525],[87.10544,21.78358],[87.15928,21.76862],[87.17564,21.81437],[87.09877,21.86553],[87.03445,21.87048],[87.00909,21.90064],[87.00981,21.94568],[87.03854,21.99414],[87.02189,22.04614],[86.96157,22.08816],[86.83647,22.09985],[86.80161,22.13081],[86.79485,22.15858],[86.72004,22.14812],[86.72558,22.22135],[86.65583,22.23767],[86.65027,22.26579],[86.5957,22.27921],[86.58324,22.30216],[86.5372,22.30251],[86.50478,22.34521],[86.44332,22.32762],[86.43828,22.30583],[86.35775,22.3496],[86.28491,22.44952],[86.11261,22.48876],[86.04385,22.56729],[86.02373,22.54737],[86.02741,22.52432],[85.98611,22.5135]]]}},{"type":"Feature","properties":{"district_name":"Nabarangapur","canonical_district_name":"Nabarangpur","district_code_if_known":{"census_code":397,"lgd_code":366},"travel_region":"Koraput & Tribal Highlands","source":"geoBoundaries gbOpen IND ADM2 (William & Mary geoLab / UN OCHA HDX)","source_authority":"EXTERNAL_OPEN_DATA","source_license":"CC BY 4.0","source_version":"gbOpen IND ADM2","retrieved_at":"2026-09-08T10:19:35+05:30","geometry_status":"VALID","canonical_promotion_allowed":false,"provenance":{"source_id":"SRC_GEOBOUNDARIES_IND_ADM2","claim_id":"CLM_DISTRICT_BOUNDARIES_GEOBOUNDARIES_008","source_url":"https://www.geoboundaries.org/api/current/gbOpen/IND/ADM2/","source_tier":"TIER_C_INSTITUTIONAL","retrieved_at":"2026-09-08T10:19:35+05:30","licensing_status":"CREATIVE_COMMONS_CC_BY_4_0","freshness_class":"SLOW_CHANGING","review_verdict":"ACCEPT_STAGING"}},"geometry":{"type":"Polygon","coordinates":[[[82.18422,19.13194],[82.23773,19.13471],[82.2328,19.16271],[82.29402,19.17651],[82.30073,19.1989],[82.32364,19.20152],[82.32859,19.18639],[82.36723,19.20465],[82.41166,19.18111],[82.40996,19.21403],[82.43705,19.1963],[82.43622,19.17148],[82.57365,19.21214],[82.58195,19.1962],[82.61368,19.19503],[82.62552,19.1509],[82.64018,19.14963],[82.63935,19.176],[82.67958,19.19658],[82.72388,19.1741],[82.72369,19.16042],[82.74177,19.16055],[82.75645,19.18397],[82.80175,19.15015],[82.81823,19.17105],[82.82984,19.14861],[82.82868,19.18086],[82.85618,19.20628],[82.83903,19.2356],[82.80555,19.2375],[82.85006,19.32158],[82.78119,19.34447],[82.75729,19.32865],[82.74303,19.34981],[82.72755,19.34691],[82.70945,19.41926],[82.69363,19.41763],[82.63408,19.483],[82.64279,19.51124],[82.60836,19.5209],[82.61701,19.53903],[82.5691,19.54361],[82.55924,19.57996],[82.53201,19.5822],[82.54995,19.61042],[82.52812,19.63062],[82.55747,19.6448],[82.57843,19.68063],[82.56409,19.72713],[82.60323,19.74705],[82.57924,19.80801],[82.60114,19.87044],[82.44715,19.90857],[82.39648,19.8874],[82.34715,19.83564],[82.30591,19.88898],[82.26936,19.97687],[82.23828,20.00331],[82.18613,19.98328],[82.17349,20.00331],[82.12375,20.01547],[82.06554,20.0548],[82.03206,20.01501],[82.01761,20.04966],[81.94459,20.10584],[81.86782,20.02811],[81.84497,19.95494],[81.85348,19.9198],[81.96807,19.85992],[81.98788,19.8011],[82.06757,19.78854],[82.04531,19.70948],[82.05396,19.54451],[82.03031,19.50775],[82.09989,19.51585],[82.10473,19.46719],[82.12717,19.43012],[82.17509,19.43611],[82.19092,19.42391],[82.17426,19.37231],[82.14873,19.36828],[82.19108,19.3262],[82.15967,19.27203],[82.16367,19.20323],[82.18676,19.16567],[82.17212,19.16144],[82.18277,19.15206],[82.16777,19.13333],[82.17781,19.11975],[82.18422,19.13194]]]}},{"type":"Feature","properties":{"district_name":"Nayagarh","canonical_district_name":"Nayagarh","district_code_if_known":{"census_code":385,"lgd_code":367},"travel_region":"Bhubaneswar & Central","source":"geoBoundaries gbOpen IND ADM2 (William & Mary geoLab / UN OCHA HDX)","source_authority":"EXTERNAL_OPEN_DATA","source_license":"CC BY 4.0","source_version":"gbOpen IND ADM2","retrieved_at":"2026-09-08T10:19:35+05:30","geometry_status":"VALID","canonical_promotion_allowed":false,"provenance":{"source_id":"SRC_GEOBOUNDARIES_IND_ADM2","claim_id":"CLM_DISTRICT_BOUNDARIES_GEOBOUNDARIES_008","source_url":"https://www.geoboundaries.org/api/current/gbOpen/IND/ADM2/","source_tier":"TIER_C_INSTITUTIONAL","retrieved_at":"2026-09-08T10:19:35+05:30","licensing_status":"CREATIVE_COMMONS_CC_BY_4_0","freshness_class":"SLOW_CHANGING","review_verdict":"ACCEPT_STAGING"}},"geometry":{"type":"Polygon","coordinates":[[[84.79411,20.58175],[84.77685,20.53643],[84.73895,20.53967],[84.69961,20.49942],[84.68457,20.46353],[84.69215,20.44281],[84.6637,20.42614],[84.62194,20.43493],[84.56147,20.41351],[84.54675,20.42259],[84.51269,20.39911],[84.51959,20.37307],[84.48525,20.35154],[84.5128,20.34067],[84.51626,20.3214],[84.54381,20.32738],[84.54726,20.24507],[84.58989,20.18392],[84.64065,20.20012],[84.67341,20.27406],[84.69651,20.28204],[84.74368,20.24564],[84.82867,20.22311],[84.82193,20.12341],[84.79904,20.09509],[84.85665,20.03089],[84.8628,20.00095],[84.90189,19.99362],[84.92386,19.94196],[84.91138,19.90589],[85.00994,19.90029],[85.1277,19.93389],[85.16704,19.90513],[85.24514,19.90608],[85.33161,19.92627],[85.36335,19.95879],[85.40353,19.93021],[85.43615,19.94079],[85.45694,19.97372],[85.4406,19.99489],[85.41659,19.99558],[85.43483,20.02766],[85.41482,20.02122],[85.38067,20.07212],[85.4142,20.12812],[85.38438,20.15643],[85.35599,20.14577],[85.36853,20.18129],[85.33304,20.18072],[85.24073,20.11509],[85.20558,20.15514],[85.20145,20.18806],[85.22659,20.22367],[85.24422,20.20861],[85.25605,20.22696],[85.32387,20.23146],[85.34033,20.24568],[85.33011,20.2753],[85.37372,20.35113],[85.36762,20.39266],[85.28592,20.37226],[85.24866,20.39364],[85.19139,20.38806],[85.07624,20.41629],[84.94534,20.49285],[84.88466,20.49971],[84.79411,20.58175]]]}},{"type":"Feature","properties":{"district_name":"Nuapada","canonical_district_name":"Nuapada","district_code_if_known":{"census_code":394,"lgd_code":368},"travel_region":"Sambalpur & Western Odisha","source":"geoBoundaries gbOpen IND ADM2 (William & Mary geoLab / UN OCHA HDX)","source_authority":"EXTERNAL_OPEN_DATA","source_license":"CC BY 4.0","source_version":"gbOpen IND ADM2","retrieved_at":"2026-09-08T10:19:35+05:30","geometry_status":"VALID","canonical_promotion_allowed":false,"provenance":{"source_id":"SRC_GEOBOUNDARIES_IND_ADM2","claim_id":"CLM_DISTRICT_BOUNDARIES_GEOBOUNDARIES_008","source_url":"https://www.geoboundaries.org/api/current/gbOpen/IND/ADM2/","source_tier":"TIER_C_INSTITUTIONAL","retrieved_at":"2026-09-08T10:19:35+05:30","licensing_status":"CREATIVE_COMMONS_CC_BY_4_0","freshness_class":"SLOW_CHANGING","review_verdict":"ACCEPT_STAGING"}},"geometry":{"type":"Polygon","coordinates":[[[82.70482,19.99845],[82.7407,20.02864],[82.73638,20.05851],[82.75643,20.0562],[82.79037,20.10218],[82.81529,20.10235],[82.82497,20.16611],[82.81421,20.18117],[82.84896,20.19691],[82.86241,20.27091],[82.81439,20.29572],[82.82324,20.32235],[82.85073,20.2938],[82.85309,20.34108],[82.81746,20.35917],[82.81469,20.32873],[82.79235,20.32663],[82.81734,20.38369],[82.77132,20.35534],[82.71965,20.35806],[82.73222,20.38481],[82.68674,20.45063],[82.71345,20.56753],[82.74322,20.62356],[82.72406,20.67233],[82.69633,20.68128],[82.70294,20.72625],[82.68944,20.73535],[82.69377,21.02225],[82.63922,21.09059],[82.61675,21.07484],[82.62969,21.04029],[82.61183,21.00962],[82.55312,20.93876],[82.49307,20.90733],[82.48934,20.85921],[82.46648,20.82777],[82.42297,20.82947],[82.40884,20.86624],[82.36647,20.87029],[82.35405,20.88755],[82.34258,20.76244],[82.37571,20.62826],[82.33151,20.55817],[82.38799,20.51429],[82.39561,20.45706],[82.41757,20.47783],[82.43668,20.43039],[82.40132,20.34029],[82.43678,20.28786],[82.41264,20.26844],[82.42117,20.20732],[82.38652,20.14975],[82.40339,20.05432],[82.60598,19.99131],[82.63934,20.00576],[82.70482,19.99845]]]}},{"type":"Feature","properties":{"district_name":"Puri","canonical_district_name":"Puri","district_code_if_known":{"census_code":387,"lgd_code":369},"travel_region":"Puri & Coastal","source":"geoBoundaries gbOpen IND ADM2 (William & Mary geoLab / UN OCHA HDX)","source_authority":"EXTERNAL_OPEN_DATA","source_license":"CC BY 4.0","source_version":"gbOpen IND ADM2","retrieved_at":"2026-09-08T10:19:35+05:30","geometry_status":"VALID","canonical_promotion_allowed":false,"provenance":{"source_id":"SRC_GEOBOUNDARIES_IND_ADM2","claim_id":"CLM_DISTRICT_BOUNDARIES_GEOBOUNDARIES_008","source_url":"https://www.geoboundaries.org/api/current/gbOpen/IND/ADM2/","source_tier":"TIER_C_INSTITUTIONAL","retrieved_at":"2026-09-08T10:19:35+05:30","licensing_status":"CREATIVE_COMMONS_CC_BY_4_0","freshness_class":"SLOW_CHANGING","review_verdict":"ACCEPT_STAGING"}},"geometry":{"type":"Polygon","coordinates":[[[86.08227,20.10696],[86.02075,20.10332],[86.00743,20.11681],[85.99502,20.10728],[85.90493,20.12724],[85.88522,20.11064],[85.87514,20.12291],[85.90065,20.14849],[85.88903,20.177],[85.85344,20.19414],[85.85596,20.17619],[85.83925,20.19489],[85.82686,20.15902],[85.79972,20.15107],[85.76525,20.16721],[85.72235,20.13023],[85.68909,20.14962],[85.67994,20.07215],[85.6532,20.06617],[85.65207,20.09694],[85.63314,20.1006],[85.64538,20.08442],[85.6202,20.05933],[85.63092,20.02517],[85.61755,19.99191],[85.61732,20.01869],[85.59445,19.99554],[85.5726,20.02441],[85.56501,19.95011],[85.53135,19.97794],[85.50221,19.94609],[85.51947,19.94251],[85.51005,19.9264],[85.52848,19.94172],[85.56657,19.9174],[85.56445,19.85522],[85.56078,19.87904],[85.5363,19.89173],[85.40651,19.88633],[85.38133,19.84282],[85.34614,19.82858],[85.32346,19.79653],[85.25472,19.78418],[85.2416,19.74189],[85.21944,19.74625],[85.19082,19.71176],[85.20578,19.68495],[85.18417,19.67615],[85.17703,19.55828],[85.13682,19.52154],[85.15899,19.48351],[85.17431,19.46788],[85.33603,19.57861],[85.66953,19.74041],[85.92462,19.82319],[86.19596,19.88952],[86.37504,19.95821],[86.31658,20.0288],[86.27303,20.04485],[86.27847,20.05774],[86.24772,20.03933],[86.20942,20.04032],[86.19967,20.05414],[86.12849,20.04084],[86.1172,20.06749],[86.08165,20.06931],[86.08227,20.10696]]]}},{"type":"Feature","properties":{"district_name":"Rayagada","canonical_district_name":"Rayagada","district_code_if_known":{"census_code":396,"lgd_code":370},"travel_region":"Koraput & Tribal Highlands","source":"geoBoundaries gbOpen IND ADM2 (William & Mary geoLab / UN OCHA HDX)","source_authority":"EXTERNAL_OPEN_DATA","source_license":"CC BY 4.0","source_version":"gbOpen IND ADM2","retrieved_at":"2026-09-08T10:19:35+05:30","geometry_status":"VALID","canonical_promotion_allowed":false,"provenance":{"source_id":"SRC_GEOBOUNDARIES_IND_ADM2","claim_id":"CLM_DISTRICT_BOUNDARIES_GEOBOUNDARIES_008","source_url":"https://www.geoboundaries.org/api/current/gbOpen/IND/ADM2/","source_tier":"TIER_C_INSTITUTIONAL","retrieved_at":"2026-09-08T10:19:35+05:30","licensing_status":"CREATIVE_COMMONS_CC_BY_4_0","freshness_class":"SLOW_CHANGING","review_verdict":"ACCEPT_STAGING"}},"geometry":{"type":"Polygon","coordinates":[[[83.74714,18.9874],[83.81412,19.03201],[83.86278,18.97999],[83.89777,18.98421],[83.91331,19.01807],[83.95854,18.98672],[83.98777,19.02107],[83.96514,19.04513],[83.97143,19.06617],[84.03002,19.05457],[84.0134,19.09411],[84.01479,19.12836],[84.03212,19.13163],[83.98444,19.16209],[83.99818,19.18864],[83.98284,19.20957],[84.01086,19.2521],[84.02987,19.34602],[84.01718,19.37474],[83.9469,19.39821],[83.94405,19.42045],[83.97851,19.48614],[83.96067,19.50052],[83.97706,19.53092],[83.93429,19.57208],[83.92708,19.63093],[83.94306,19.6357],[83.9264,19.66354],[83.93796,19.6693],[83.87387,19.67472],[83.84342,19.71023],[83.80865,19.71745],[83.76898,19.71357],[83.74042,19.65514],[83.69458,19.68889],[83.64918,19.65856],[83.6374,19.673],[83.64476,19.70426],[83.60991,19.75546],[83.61944,19.81564],[83.52895,19.85828],[83.56247,19.92927],[83.45221,19.97314],[83.44286,19.93381],[83.40725,19.92104],[83.44084,19.80282],[83.45929,19.79738],[83.45572,19.74064],[83.43083,19.69875],[83.38618,19.66767],[83.3733,19.59882],[83.26751,19.60155],[83.24806,19.50885],[83.22849,19.50394],[83.20527,19.46414],[83.21813,19.43608],[83.18803,19.4645],[83.18295,19.42487],[83.15513,19.45772],[83.1474,19.50059],[83.10947,19.5097],[83.10498,19.54317],[83.0891,19.54065],[83.07098,19.5628],[83.03896,19.55319],[83.02697,19.51302],[82.99375,19.4907],[82.99174,19.44797],[82.9605,19.43773],[82.93939,19.45039],[82.92456,19.43586],[82.95298,19.39123],[82.9575,19.32559],[82.90491,19.28579],[82.89076,19.25497],[82.90226,19.23004],[82.87884,19.18471],[82.90467,19.15937],[82.95048,19.15544],[82.97951,19.17433],[82.98402,19.13383],[83.03084,19.08118],[83.02305,19.06489],[83.06372,19.04488],[83.10429,19.11254],[83.13082,19.09434],[83.13753,19.13736],[83.16098,19.12392],[83.2046,19.15016],[83.20212,19.16767],[83.25985,19.16485],[83.24405,19.12717],[83.20168,19.13741],[83.1716,19.11259],[83.17051,19.0829],[83.1949,19.07553],[83.19019,19.01558],[83.20653,18.97639],[83.24149,18.97333],[83.23875,19.02399],[83.26691,19.05036],[83.28525,19.12507],[83.34101,19.10206],[83.34447,19.05538],[83.36425,19.0469],[83.34837,19.01751],[83.37525,19.00216],[83.41658,19.00476],[83.41652,18.9885],[83.46321,18.95433],[83.45622,19.00824],[83.48229,19.00895],[83.48565,19.02978],[83.46708,19.07814],[83.48091,19.08623],[83.5013,19.06163],[83.51305,19.0733],[83.52134,19.0334],[83.50123,19.03541],[83.50309,19.01973],[83.53906,19.01411],[83.55994,19.05581],[83.55407,19.08239],[83.56528,19.06],[83.5864,19.05843],[83.59216,19.08844],[83.61202,19.09677],[83.60189,19.12884],[83.63083,19.1621],[83.70461,19.02531],[83.7308,19.02077],[83.71331,18.99415],[83.73387,18.98451],[83.74974,18.93222],[83.77888,18.91046],[83.78473,18.92819],[83.74714,18.9874]]]}},{"type":"Feature","properties":{"district_name":"Sambalpur","canonical_district_name":"Sambalpur","district_code_if_known":{"census_code":372,"lgd_code":371},"travel_region":"Sambalpur & Western Odisha","source":"geoBoundaries gbOpen IND ADM2 (William & Mary geoLab / UN OCHA HDX)","source_authority":"EXTERNAL_OPEN_DATA","source_license":"CC BY 4.0","source_version":"gbOpen IND ADM2","retrieved_at":"2026-09-08T10:19:35+05:30","geometry_status":"VALID","canonical_promotion_allowed":false,"provenance":{"source_id":"SRC_GEOBOUNDARIES_IND_ADM2","claim_id":"CLM_DISTRICT_BOUNDARIES_GEOBOUNDARIES_008","source_url":"https://www.geoboundaries.org/api/current/gbOpen/IND/ADM2/","source_tier":"TIER_C_INSTITUTIONAL","retrieved_at":"2026-09-08T10:19:35+05:30","licensing_status":"CREATIVE_COMMONS_CC_BY_4_0","freshness_class":"SLOW_CHANGING","review_verdict":"ACCEPT_STAGING"}},"geometry":{"type":"Polygon","coordinates":[[[84.28272,20.92768],[84.40148,20.97445],[84.43576,21.01476],[84.41048,21.03127],[84.44199,21.03509],[84.48496,21.08305],[84.53509,21.08913],[84.5891,21.0644],[84.65163,21.08491],[84.68307,21.0647],[84.67059,21.09598],[84.68539,21.14952],[84.72538,21.1498],[84.74457,21.17109],[84.72437,21.21786],[84.74395,21.23253],[84.76105,21.22489],[84.77217,21.25271],[84.75813,21.25822],[84.76272,21.27611],[84.70052,21.32006],[84.57082,21.25161],[84.55666,21.34693],[84.50044,21.33093],[84.50044,21.35562],[84.45928,21.36738],[84.37814,21.34151],[84.38167,21.45676],[84.44517,21.48028],[84.4534,21.5038],[84.47222,21.50498],[84.4828,21.53438],[84.49598,21.5274],[84.53975,21.57911],[84.57478,21.57289],[84.52739,21.62312],[84.49127,21.6382],[84.5053,21.67986],[84.54456,21.67722],[84.57852,21.70049],[84.62751,21.69522],[84.63875,21.73742],[84.67966,21.735],[84.67747,21.75432],[84.65453,21.76713],[84.55884,21.76753],[84.56872,21.78764],[84.52845,21.81371],[84.53119,21.88255],[84.49567,21.90802],[84.53003,21.9281],[84.5288,21.97407],[84.50788,21.96073],[84.50338,21.97075],[84.52978,22.04507],[84.49671,22.09888],[84.47793,22.18903],[84.32579,22.12488],[84.27873,22.12108],[84.26782,22.10472],[84.26944,22.0146],[84.29951,22.03415],[84.35759,22.037],[84.38918,22.02457],[84.39325,21.99277],[84.36909,21.9725],[84.37718,21.95493],[84.29081,21.7666],[84.18998,21.7547],[84.11507,21.78945],[84.03854,21.75957],[84.01482,21.78663],[83.99071,21.75228],[83.96974,21.76618],[83.94406,21.72809],[83.97305,21.70919],[83.97352,21.57799],[83.89408,21.57417],[83.82331,21.59467],[83.79973,21.5667],[83.81514,21.54019],[83.84666,21.52779],[83.88665,21.43931],[83.84944,21.41072],[83.88079,21.39058],[83.87148,21.31111],[83.91328,21.24652],[83.89592,21.17865],[83.98589,21.13527],[83.9908,21.07977],[84.02005,21.05576],[84.14782,21.03612],[84.1608,20.97621],[84.1945,20.97717],[84.24155,20.9267],[84.28272,20.92768]]]}},{"type":"Feature","properties":{"district_name":"Subarnapur","canonical_district_name":"Subarnapur","district_code_if_known":{"census_code":392,"lgd_code":372},"travel_region":"Sambalpur & Western Odisha","source":"geoBoundaries gbOpen IND ADM2 (William & Mary geoLab / UN OCHA HDX)","source_authority":"EXTERNAL_OPEN_DATA","source_license":"CC BY 4.0","source_version":"gbOpen IND ADM2","retrieved_at":"2026-09-08T10:19:35+05:30","geometry_status":"VALID","canonical_promotion_allowed":false,"provenance":{"source_id":"SRC_GEOBOUNDARIES_IND_ADM2","claim_id":"CLM_DISTRICT_BOUNDARIES_GEOBOUNDARIES_008","source_url":"https://www.geoboundaries.org/api/current/gbOpen/IND/ADM2/","source_tier":"TIER_C_INSTITUTIONAL","retrieved_at":"2026-09-08T10:19:35+05:30","licensing_status":"CREATIVE_COMMONS_CC_BY_4_0","freshness_class":"SLOW_CHANGING","review_verdict":"ACCEPT_STAGING"}},"geometry":{"type":"Polygon","coordinates":[[[84.28272,20.92768],[84.24155,20.9267],[84.1945,20.97717],[84.1608,20.97621],[84.14782,21.03612],[84.02005,21.05576],[83.9908,21.07977],[83.98589,21.13527],[83.8956,21.17869],[83.84469,21.0979],[83.79957,21.11652],[83.7821,21.15506],[83.71801,21.12159],[83.61367,21.12954],[83.54976,21.07622],[83.49762,21.06232],[83.49892,21.04219],[83.4659,21.06056],[83.45006,21.02384],[83.47085,20.99814],[83.51345,20.98252],[83.64103,20.98288],[83.61118,20.93392],[83.62075,20.90424],[83.57375,20.85338],[83.6255,20.8273],[83.63759,20.77235],[83.65592,20.77356],[83.65328,20.75246],[83.67766,20.74276],[83.59576,20.60418],[83.59536,20.54256],[83.61132,20.52876],[83.68896,20.5612],[83.73137,20.6068],[83.71858,20.64076],[83.75931,20.71609],[83.76324,20.77556],[83.78108,20.79942],[83.84502,20.82431],[83.89851,20.81662],[83.9404,20.84155],[84.05483,20.82885],[84.21769,20.90225],[84.2674,20.88988],[84.28272,20.92768]]]}},{"type":"Feature","properties":{"district_name":"Sundargarh","canonical_district_name":"Sundargarh","district_code_if_known":{"census_code":374,"lgd_code":373},"travel_region":"Rourkela & Sundargarh","source":"geoBoundaries gbOpen IND ADM2 (William & Mary geoLab / UN OCHA HDX)","source_authority":"EXTERNAL_OPEN_DATA","source_license":"CC BY 4.0","source_version":"gbOpen IND ADM2","retrieved_at":"2026-09-08T10:19:35+05:30","geometry_status":"VALID","canonical_promotion_allowed":false,"provenance":{"source_id":"SRC_GEOBOUNDARIES_IND_ADM2","claim_id":"CLM_DISTRICT_BOUNDARIES_GEOBOUNDARIES_008","source_url":"https://www.geoboundaries.org/api/current/gbOpen/IND/ADM2/","source_tier":"TIER_C_INSTITUTIONAL","retrieved_at":"2026-09-08T10:19:35+05:30","licensing_status":"CREATIVE_COMMONS_CC_BY_4_0","freshness_class":"SLOW_CHANGING","review_verdict":"ACCEPT_STAGING"}},"geometry":{"type":"Polygon","coordinates":[[[84.14171,22.47356],[83.98697,22.52441],[83.98298,22.50465],[84.04839,22.46666],[84.01106,22.37034],[83.86792,22.34639],[83.75975,22.24554],[83.69999,22.24813],[83.65275,22.2272],[83.56621,22.1066],[83.60733,22.06835],[83.55004,22.0622],[83.5395,22.03688],[83.55559,22.0096],[83.54221,21.96646],[83.56038,21.93521],[83.60748,21.91395],[83.57854,21.87503],[83.59294,21.85084],[83.58471,21.82981],[83.62951,21.84879],[83.64308,21.81711],[83.68683,21.8041],[83.70365,21.77492],[83.89783,21.94574],[83.96111,21.9418],[83.98085,21.90675],[84.02911,21.95327],[84.07869,21.93764],[84.08944,21.96752],[84.07289,21.99013],[84.1101,21.99377],[84.1213,22.01154],[84.23318,21.97543],[84.26926,22.00791],[84.27873,22.12108],[84.32579,22.12488],[84.47793,22.18903],[84.49671,22.09888],[84.52978,22.04507],[84.50338,21.97075],[84.50788,21.96073],[84.5288,21.97407],[84.53003,21.9281],[84.49567,21.90802],[84.53119,21.88255],[84.52845,21.81371],[84.56872,21.78764],[84.55884,21.76753],[84.67147,21.75972],[84.69771,21.70715],[84.7204,21.71543],[84.74889,21.68193],[84.75905,21.62516],[84.79314,21.63235],[84.79298,21.66888],[84.86565,21.65285],[85.00012,21.68249],[85.02745,21.67203],[85.05171,21.58939],[85.08787,21.6039],[85.15023,21.59452],[85.19699,21.64066],[85.18369,21.64725],[85.18715,21.711],[85.21525,21.74157],[85.20435,21.76853],[85.23062,21.82262],[85.24377,21.80408],[85.28536,21.83642],[85.31715,21.81921],[85.35994,21.85243],[85.37187,21.93782],[85.27459,21.96015],[85.22089,22.0149],[85.21674,22.04731],[85.18278,22.07079],[85.17041,22.06929],[85.17323,22.05278],[85.1616,22.0745],[85.12495,22.07051],[85.10154,22.10341],[85.05003,22.1146],[85.0085,22.08387],[84.98612,22.08854],[85.02989,22.11587],[85.03155,22.15782],[85.0756,22.23438],[85.07664,22.27581],[85.12056,22.29413],[85.12014,22.31782],[85.09409,22.31769],[85.09909,22.34464],[85.0802,22.35211],[85.08922,22.38193],[85.06321,22.44806],[85.07979,22.47],[85.06866,22.48171],[84.96083,22.44219],[84.95352,22.45434],[84.90353,22.4217],[84.88654,22.42086],[84.88283,22.44647],[84.83888,22.42961],[84.81415,22.45003],[84.75908,22.44515],[84.75025,22.41794],[84.66805,22.41705],[84.63856,22.43172],[84.53317,22.42304],[84.48324,22.40898],[84.48416,22.38671],[84.45444,22.38211],[84.43268,22.35187],[84.2959,22.34028],[84.25326,22.37657],[84.20085,22.37465],[84.15925,22.40368],[84.14266,22.42338],[84.14171,22.47356]]]}}]}